"NAME","the_geom","ADDRESS1","ADDRESS2","CITY","ZIP","long","lat"
"O'reilly William & Co Ltd","POINT (-73.96273074561996 40.773800871637576)","52 E 76th St","","New York",10021,"-73.96273074561996","40.773800871637576"
"Organization of Independent Artists - Gallery 402","POINT (-74.0093857886298 40.71646850931738)","19 Hudson St.","","New York",10013,"-74.0093857886298","40.71646850931738"
"Owen Gallery","POINT (-73.96435178145856 40.7740008522409)","19 E 75th St","","New York",10021,"-73.96435178145856","40.7740008522409"
"P P O W Gallerie","POINT (-74.00389261044238 40.74958540084406)","511 W 25th St","","New York",10001,"-74.00389261044238","40.74958540084406"
"P P O W Inc","POINT (-74.00176389614576 40.72290742771331)","476 Broome St","","New York",10013,"-74.00176389614576","40.72290742771331"
"P S 122 Gallery","POINT (-73.98437148002196 40.72816774159305)","150 1st Ave","","New York",10009,"-73.98437148002196","40.72816774159305"
"Pace Editions","POINT (-73.99437670706857 40.73920194963794)","44 W 18th St","","New York",10011,"-73.99437670706857","40.73920194963794"
"Pace MacGill Gallery","POINT (-73.97202174911459 40.76194965113893)","32 E. 57th St.","9th Fl.","New York",10022,"-73.97202174911459","40.76194965113893"
"Pace Prints & Primitive Gallery","POINT (-73.97211461855828 40.76183646853851)","32 E. 57th St.","3rd Fl.","New York",10022,"-73.97211461855828","40.76183646853851"
"Pace Wildenstein","POINT (-74.00495117630976 40.749448279774704)","534 W 25th St","","New York",10001,"-74.00495117630976","40.749448279774704"
"Pace Wildenstein","POINT (-73.97207691758459 40.761886074501135)","32 E 57th St","Fl 4","New York",10022,"-73.97207691758459","40.761886074501135"
"Paige's Art Gallery","POINT (-73.95927392718306 40.815000699601086)","3163 Broadway","","New York",10027,"-73.95927392718306","40.815000699601086"
"PaineWebber Gallery","POINT (-73.98058386642786 40.76118894257876)","1285 Sixth Ave.","","New York",10019,"-73.98058386642786","40.76118894257876"
"Paint Can Studios","POINT (-73.92794008275476 40.755157871293065)","3608 34th St","","Astoria",11106,"-73.92794008275476","40.755157871293065"
"Paley Barbara K","POINT (-73.98148007125768 40.76637001937273)","1776 Broadway","","New York",10019,"-73.98148007125768","40.76637001937273"
"Pall William Inc","POINT (-73.96481233836307 40.764508738680895)","188 E 64th St","","New York",10021,"-73.96481233836307","40.764508738680895"
"Palmer Meredith Gallery","POINT (-73.95482248967467 40.78563341564519)","40 E 94th St","","New York",10128,"-73.95482248967467","40.78563341564519"
"Pandora Old Masters","POINT (-73.9608164118453 40.76789235225353)","212 E 70th St","","New York",10021,"-73.9608164118453","40.76789235225353"
"Pardo Sheenan Galleries Ltd","POINT (-73.98156101599031 40.74489610149597)","121 E 31st St","","New York",10016,"-73.98156101599031","40.74489610149597"
"Parker's Box","POINT (-73.9604447082016 40.714309158269266)","193 Grand St","","Brooklyn",11211,"-73.9604447082016","40.714309158269266"
"Parsons Galleries","POINT (-73.9947818620198 40.73539495311296)","2 W. 13th St.","","New York",10011,"-73.9947818620198","40.73539495311296"
"Patricia Laligant Photographs","POINT (-73.99282054710083 40.74676020721873)","150 W 28th St","","New York",10001,"-73.99282054710083","40.74676020721873"
"Patrick's Gallery","POINT (-73.99851017182027 40.741868777110206)","220 W 19th St","","New York",10011,"-73.99851017182027","40.741868777110206"
"Paul Kasmin Gallery","POINT (-74.00272285706035 40.75019275007833)","293 10th Ave","","New York",10001,"-74.00272285706035","40.75019275007833"
"Paula Cooper Gallery","POINT (-74.0068977266516 40.74691990132535)","534 W. 21st St.","","New York",10011,"-74.0068977266516","40.74691990132535"
"Peck Ian Fine Paintings Ltd","POINT (-73.9636501275563 40.77476053223472)","980 Madison Ave","","New York",10021,"-73.9636501275563","40.77476053223472"
"Peder Bonnier Inc","POINT (-73.99623914232185 40.7440599458188)","206 W 23rd St","Fl 4","New York",10011,"-73.99623914232185","40.7440599458188"
"Perimeter Gallery","POINT (-74.00389939402838 40.74938125319496)","511 W 25th St","","New York",10001,"-74.00389939402838","40.74938125319496"
"Perlow Rich Katharina Gallery Inc","POINT (-73.97163996489826 40.76236540983018)","41 E 57th St","","New York",10022,"-73.97163996489826","40.76236540983018"
"Peter L Villa Fine Art","POINT (-73.97029437215403 40.761169700561084)","110 E 57th St","","New York",10022,"-73.97029437215403","40.761169700561084"
"Peter Rose Gallery","POINT (-73.96690494675263 40.760575546804205)","200 E 58th St","Apt 20C","New York",10022,"-73.96690494675263","40.760575546804205"
"Peters Gerald Gallery","POINT (-73.96316937082618 40.775663560369196)","24 E 78th St","","New York",10075,"-73.96316937082618","40.775663560369196"
"Phoenix Design Ltd","POINT (-73.77059062315153 40.76366854810639)","21415 41st Ave","","Bayside",11361,"-73.77059062315153","40.76366854810639"
"Phoenix Gallery","POINT (-74.00599166531202 40.749775251812174)","210 ELEVENTH AVENUE","SUITE 902","New York",10001,"-74.00599166531202","40.749775251812174"
"Phoneup","POINT (-73.9950260483218 40.71651671861807)","55 Chrystie St","","New York",10002,"-73.9950260483218","40.71651671861807"
"Photo & Art Gallery","POINT (-73.75339446579802 40.60296210069956)","1023 Beach 20th St","","Far Rockaway",11691,"-73.75339446579802","40.60296210069956"
"Photo Collection Gagliardi","POINT (-73.99269646708568 40.7406376655353)","27 W 20th St","","New York",10011,"-73.99269646708568","40.7406376655353"
"Photo District Gallery","POINT (-73.99310574442202 40.74080485280703)","37 W 20th St","Lbby","New York",10011,"-73.99310574442202","40.74080485280703"
"Phyllis Lucas Gallery Inc","POINT (-73.96795085870986 40.75614508447523)","981 2nd Ave","","New York",10022,"-73.96795085870986","40.75614508447523"
"Picture This Corporate Art","POINT (-73.99260350161633 40.68324193641588)","249 Smith Street","# 102","Brooklyn",11231,"-73.99260350161633","40.68324193641588"
"Pierogi 2000","POINT (-73.95578160004416 40.718750345970065)","177 N 9th St","","Brooklyn",11211,"-73.95578160004416","40.718750345970065"
"Place Des Vosges","POINT (-73.99094407977347 40.73276121745574)","816 Broadway","","New York",10003,"-73.99094407977347","40.73276121745574"
"Plane Space","POINT (-74.00518362849395 40.73439963410778)","102 Charles St","","New York",10014,"-74.00518362849395","40.73439963410778"
"Plaster Palace","POINT (-73.98315035383828 40.62575957274058)","5305 18th Ave","","Brooklyn",11204,"-73.98315035383828","40.62575957274058"
"Plaza Holding Inc","POINT (-73.9757536168505 40.762158820594074)","15 W 55th St","","New York",10019,"-73.9757536168505","40.762158820594074"
"Plaza Holding Inc","POINT (-73.97568005712148 40.76226036307528)","15 W 55th St","","New York",10019,"-73.97568005712148","40.76226036307528"
"Plaza Watch & Jewelry Exchange","POINT (-73.97867413980654 40.7652614379812)","145 W 57th St","","New York",10019,"-73.97867413980654","40.7652614379812"
"Pleiades Gallery","POINT (-74.004770690104 40.74937493397012)","530 W 25th St","","New York",10001,"-74.004770690104","40.74937493397012"
"Plum Blossom Gallery","POINT (-74.0053735768785 40.7501763280434)","555 W 25th St","","New York",10001,"-74.0053735768785","40.7501763280434"
"Polizzi Fine Art","POINT (-74.02860202478092 40.628876223412206)","7813 3rd Ave","","Brooklyn",11209,"-74.02860202478092","40.628876223412206"
"Poller Leah","POINT (-73.99973975533851 40.72417671147656)","98 Greene St","","New York",10012,"-73.99973975533851","40.72417671147656"
"Portara Gallery","POINT (-73.76753263900895 40.75653978324558)","4720A Bell Blvd","","Bayside",11361,"-73.76753263900895","40.75653978324558"
"Portico Fine Art","POINT (-74.0008266559124 40.724259321517835)","139 Spring St","","New York",10012,"-74.0008266559124","40.724259321517835"
"Portrait Gallery","POINT (-73.92228135415756 40.60993574125617)","5100 Kings Plz","","Brooklyn",11234,"-73.92228135415756","40.60993574125617"
"Postmasters Gallery","POINT (-74.00534660392837 40.745202434263945)","459 W 19th St","","New York",10011,"-74.00534660392837","40.745202434263945"
"Praxis International Art","POINT (-73.96513542144585 40.77277684295719)","25 E 73rd St","Fl 4","New York",10021,"-73.96513542144585","40.77277684295719"
"Prieto International Attorney In Fact Johnpoll","POINT (-74.00723565260127 40.71024984423636)","127 Fulton St","","New York",10038,"-74.00723565260127","40.71024984423636"
"Prince Street Gallery","POINT (-74.00469480010908 40.749337897473445)","530 W 25th St","","New York",10001,"-74.00469480010908","40.749337897473445"
"Professional Fine Arts Svces Inc","POINT (-73.99573169554829 40.74191723417448)","141 W 20th St","","New York",10011,"-73.99573169554829","40.74191723417448"
"Proposition the","POINT (-74.00714842024912 40.74820539748208)","162 11th Ave","","New York",10011,"-74.00714842024912","40.74820539748208"
"Public Art Fund","POINT (-73.97518753856254 40.760375484073926)","1 E. 53d St.","","New York",10022,"-73.97518753856254","40.760375484073926"
"Puerto Rican Work Shop Inc","POINT (-73.94672759344712 40.7926998453047)","121 E 106th St","","New York",10029,"-73.94672759344712","40.7926998453047"
"Pushman Gallery Inc","POINT (-73.979913078835 40.76499908899108)","154 W 57th St","","New York",10019,"-73.979913078835","40.76499908899108"
"Pytlak Art Studio","POINT (-73.94988527250548 40.71427612774082)","573 Metropolitan Ave","","Brooklyn",11211,"-73.94988527250548","40.71427612774082"
"Queen Art Publishers Inc","POINT (-74.00979549289632 40.72549195065175)","481 Washington St","","New York",10013,"-74.00979549289632","40.72549195065175"
"Questroyal Fine Art","POINT (-73.96001773937685 40.77572380172859)","903 Park Ave","Apt 3A","New York",10021,"-73.96001773937685","40.77572380172859"
"Rabenou Yris Ancient Arts","POINT (-73.96383620358236 40.762223977689416)","249 E 61st St","","New York",10021,"-73.96383620358236","40.762223977689416"
"Radio House Gallery","POINT (-74.00698522749778 40.75178267196637)","601 W 26th St","","New York",10001,"-74.00698522749778","40.75178267196637"
"Rafael Gallery","POINT (-73.96484847311721 40.76106891398838)","241 E 59th St","","New York",10022,"-73.96484847311721","40.76106891398838"
"Rainbow Fine Art Inc","POINT (-73.96108478026073 40.77866480998064)","15 E 82nd St","","New York",10028,"-73.96108478026073","40.77866480998064"
"Ralph Chait Galleries Inc","POINT (-73.97472467424907 40.76269798806097)","724 5th Ave","","New York",10019,"-73.97472467424907","40.76269798806097"
"Randel Gallery Inc","POINT (-73.96194182288089 40.77557044121497)","49 East 78th Street","1B","New York",10021,"-73.96194182288089","40.77557044121497"
"Randolph & Tate Assocs","POINT (-73.98804680373928 40.74435684322828)","234 5th Ave","","New York",10001,"-73.98804680373928","40.74435684322828"
"Raphael Fodde Editions","POINT (-73.98997735599107 40.70208740023595)","70 WASHINGTON ST","","Brooklyn",11201,"-73.98997735599107","40.70208740023595"
"Rare art Gallery","POINT (-74.00368999417438 40.75021572567968)","521 W 26th St Bsmt","","New York",10001,"-74.00368999417438","40.75021572567968"
"Raydon Gallery","POINT (-73.96032667632238 40.77833720539059)","1091 Madison Ave","","New York",10001,"-73.96032667632238","40.77833720539059"
"Red Dot","POINT (-73.99505920460594 40.74274457506512)","140 W 22nd St","","New York",10011,"-73.99505920460594","40.74274457506512"
"Reece Galleries Inc The","POINT (-73.97570995606252 40.7633560679256)","24 W 57th St","","New York",10019,"-73.97570995606252","40.7633560679256"
"Reeves Contemporary Inc","POINT (-74.00518820857934 40.74928257893011)","535 W 24th St","","New York",10011,"-74.00518820857934","40.74928257893011"
"Regina's Art Center","POINT (-74.00172859190214 40.603379984260826)","1921 Benson Ave","","Brooklyn",11214,"-74.00172859190214","40.603379984260826"
"Rehs Galleries Inc","POINT (-73.973110440921 40.76297400449145)","5 E 57th St","Fl 8","New York",10022,"-73.973110440921","40.76297400449145"
"Reinhold Brown Gallery","POINT (-73.96068894272547 40.77864024499883)","1100 Madison Ave","Ph","New York",10028,"-73.96068894272547","40.77864024499883"
"Renaissance Gallery","POINT (-73.94134747495355 40.82412358361577)","300 W 147th St","","New York",10039,"-73.94134747495355","40.82412358361577"
"Resnick Ira Inc","POINT (-73.96881061087802 40.76189452972676)","133 E 58th St","Ste 1001","New York",10022,"-73.96881061087802","40.76189452972676"
"Ricco Maresca Gallery","POINT (-74.0068465345964 40.74661224727327)","529 W 20th St","","New York",10011,"-74.0068465345964","40.74661224727327"
"Richard Gray Gallery","POINT (-73.96268744300946 40.776035116594834)","1018 Madison Ave","","New York",10021,"-73.96268744300946","40.776035116594834"
"Richard Solomon","POINT (-73.96796822375437 40.75490203267615)","305 E 50th St","","New York",10022,"-73.96796822375437","40.75490203267615"
"Richard York Gallery","POINT (-73.96884242026259 40.76764185257714)","21 E. 65th St.","2nd. Fl.","New York",10065,"-73.96884242026259","40.76764185257714"
"Rienzo Gallery","POINT (-73.9671517745906 40.769830800695885)","20 E 69th St","","New York",10021,"-73.9671517745906","40.769830800695885"
"Ritter-Antik Inc","POINT (-73.99270194219845 40.732504272410424)","35 E 10th St","","New York",10003,"-73.99270194219845","40.732504272410424"
"Rivington Bar & Art Gallery","POINT (-73.98443865749057 40.719087479643825)","174 Rivington St","","New York",10002,"-73.98443865749057","40.719087479643825"
"Robert Lee Morris Inc","POINT (-74.00236650608144 40.724407088132416)","400 W Broadway","","New York",10012,"-74.00236650608144","40.724407088132416"
"Robert Mann Gallery","POINT (-74.00591124427345 40.749743384358574)","210 11th Ave","","New York",10001,"-74.00591124427345","40.749743384358574"
"Robert Miller Gallery Inc","POINT (-74.00423398601862 40.74998085501487)","526 W 26th St","","New York",10001,"-74.00423398601862","40.74998085501487"
"Robert Steele Gallery","POINT (-74.00398547780941 40.74942345786739)","511 W 25th St","","New York",10001,"-74.00398547780941","40.74942345786739"
"Robertson African Arts","POINT (-73.99212377125507 40.7415083515344)","36 W 22nd St","Apt 4","New York",10010,"-73.99212377125507","40.7415083515344"
"Rogallerycom","POINT (-73.95726808829765 40.76970749577403)","300 East 74th Street","","New York",10021,"-73.95726808829765","40.76970749577403"
"Ronald Feldman Fine Arts","POINT (-74.00185591328102 40.7211603892599)","31 Mercer St","","New York",10013,"-74.00185591328102","40.7211603892599"
"Roosevelt Island Visual Arts Assoc","POINT (-73.95643509706022 40.7535986702466)","527 Main St","","New York",10044,"-73.95643509706022","40.7535986702466"
"Rosen Andrea Gallery Inc","POINT (-74.00493762277485 40.74904372260324)","525 W 24th St","","New York",10011,"-74.00493762277485","40.74904372260324"
"Rosenberg & Kaufman Fine Art","POINT (-74.00070940720575 40.72502497030408)","115 Wooster St","","New York",10012,"-74.00070940720575","40.72502497030408"
"Rosenberg Paul & Co","POINT (-73.96251598937279 40.77623795678713)","20 E 79th St","","New York",10021,"-73.96251598937279","40.77623795678713"
"Ross Luise Gallery","POINT (-74.00391752109321 40.74945791536082)","511 West 25 Street","","New York",10001,"-74.00391752109321","40.74945791536082"
"Roth","POINT (-73.9625371631743 40.76883963218358)","160A E 70th St","","New York",10021,"-73.9625371631743","40.76883963218358"
"Rotunda Gallery","POINT (-73.99146799382999 40.69515733841206)","33 Clinton St","","Brooklyn",11201,"-73.99146799382999","40.69515733841206"
"Royal Fine Art","POINT (-73.95868741367525 40.77550888584743)","1158 Lexington Ave","","New York",10021,"-73.95868741367525","40.77550888584743"
"Royal-Athena Galleries","POINT (-73.96804936659153 40.760786110700764)","153 E 57th St","Ph","New York",10022,"-73.96804936659153","40.760786110700764"
"Rudolph De Paola Art Gallery","POINT (-74.02172406852321 40.6179934963939)","6 Parrott Pl","","Brooklyn",11228,"-74.02172406852321","40.6179934963939"
"Ruesch Jeffrey Fine Arts","POINT (-74.00107130886676 40.72382475175759)","134 Spring St","Fl 2","New York",10012,"-74.00107130886676","40.72382475175759"
"Russeck Gallery","POINT (-74.00056532211813 40.72679315564427)","478 W Broadway","","New York",10012,"-74.00056532211813","40.72679315564427"
"Russian World","POINT (-73.97604749164573 40.7619257405724)","18 W 55th St","","New York",10019,"-73.97604749164573","40.7619257405724"
"S & A Art Gallery Inc","POINT (-73.95658934527663 40.778446433456885)","1248 Lexington Ave","","New York",10028,"-73.95658934527663","40.778446433456885"
"S 2 Editions Ltd","POINT (-74.00479226201507 40.72529481116742)","155 Ave of the Americas","","New York",10013,"-74.00479226201507","40.72529481116742"
"S E Art & Design Inc","POINT (-73.96523800836928 40.76074545206315)","232 E 59th St","","New York",10022,"-73.96523800836928","40.76074545206315"
"Sabarsky Serge Gallery","POINT (-73.96160396766 40.77589272888765)","58 E 79th St","","New York",10021,"-73.96160396766","40.77589272888765"
"Sabbatique Ltd","POINT (-73.97398003703451 40.73684451842)","10 Waterside Plz","","New York",10010,"-73.97398003703451","40.73684451842"
"Sabrina Enterprise.Com Artworks Sales and Rprdctns","POINT (-73.86790725213015 40.75905863804786)","10022 32nd Ave","","East Elmhurst",11369,"-73.86790725213015","40.75905863804786"
"Sacks Fine Art","POINT (-73.96475380699054 40.76182788882621)","229 East 60th Street","","New York",10022,"-73.96475380699054","40.76182788882621"
"Safani Gallery Inc","POINT (-73.96369840924123 40.77483293527021)","980 Madison Ave","","New York",10021,"-73.96369840924123","40.77483293527021"
"Salz Trager Janet","POINT (-73.96550966274957 40.76954041095984)","700 Park Ave","","New York",10021,"-73.96550966274957","40.76954041095984"
"Sam's Souk","POINT (-73.96253150655406 40.76945600789786)","979 Lexington Ave","","New York",10021,"-73.96253150655406","40.76945600789786"
"Sanada Ikkanart Intl","POINT (-73.9597778376811 40.78007651787356)","30 E 85th St","","New York",10028,"-73.9597778376811","40.78007651787356"
"Sands & Company Inc Fine Art At Madison Av","POINT (-73.96342194003462 40.774137804658366)","30 E 76th St","","New York",10021,"-73.96342194003462","40.774137804658366"
"Sara Meltzer On View","POINT (-73.99709362546815 40.72470086058279)","588 Broadway","#612","New York",10012,"-73.99709362546815","40.72470086058279"
"Sarafina Inc","POINT (-73.9693726839187 40.69329478591217)","411 Myrtle Ave","","Brooklyn",11205,"-73.9693726839187","40.69329478591217"
"Sarajo Inc","POINT (-73.99880177429456 40.72527106908656)","130 Greene St","","New York",10012,"-73.99880177429456","40.72527106908656"
"Sarina Tang Fine Art","POINT (-74.00525477577852 40.74841075541706)","535 W 23rd St","","New York",10011,"-74.00525477577852","40.74841075541706"
"Savacou Galleries","POINT (-73.98626836015879 40.73178217523588)","240 E 13th St","","New York",10003,"-73.98626836015879","40.73178217523588"
"Sayn-Wittgenstein","POINT (-73.96141027379505 40.77036690857002)","155 E 72nd St","","New York",10021,"-73.96141027379505","40.77036690857002"
"Schellmann Editions","POINT (-74.00585461846735 40.749826941600126)","210 11th Ave","","New York",10001,"-74.00585461846735","40.749826941600126"
"Schickler Howard Fine Art","POINT (-73.9899230191079 40.70287471566356)","100 Water St","","Brooklyn",11201,"-73.9899230191079","40.70287471566356"
"Schillay Fine Art","POINT (-73.95267537512437 40.76613926035685)","520 E 72nd St","","New York",10021,"-73.95267537512437","40.76613926035685"
"Schiller & Bodo Fine Art","POINT (-73.96628742693697 40.76612066503104)","120 E 65th St","","New York",10021,"-73.96628742693697","40.76612066503104"
"Schlesinger Gallery","POINT (-73.96547437151817 40.77245891705941)","24 E 73rd St","","New York",10021,"-73.96547437151817","40.77245891705941"
"Scholten Japanese Art","POINT (-73.96707156094901 40.7677175399878)","63 E 66th St","","New York",10021,"-73.96707156094901","40.7677175399878"
"Schonfeld R D & Co Inc","POINT (-73.9669851798845 40.753635380576966)","349 E 49th St","Apt 6B","New York",10017,"-73.9669851798845","40.753635380576966"
"Sculpture Center","POINT (-73.94081426624797 40.746921327465024)","44-19 Purves St","","Long Island City",11101,"-73.94081426624797","40.746921327465024"
"Sean Kelly Inc","POINT (-74.00306879167971 40.75188382019684)","526 W 29th St","","New York",10001,"-74.00306879167971","40.75188382019684"
"Sears-Peyton Gallery","POINT (-74.0057991263059 40.74991739032808)","210 11th Ave","","New York",10001,"-74.0057991263059","40.74991739032808"
"Seaside Summer Concert Series Inc","POINT (-73.96089003981638 40.65968268185264)","572 Flatbush Ave","","Brooklyn",11225,"-73.96089003981638","40.65968268185264"
"Second Ave Art Expo","POINT (-73.96741088497615 40.7558314157737)","980 2nd Ave","","New York",10022,"-73.96741088497615","40.7558314157737"
"Seibold Eleanor","POINT (-73.94807967210905 40.77506696449551)","1601 York Ave","","New York",10028,"-73.94807967210905","40.77506696449551"
"Senior & Shopmaker","POINT (-73.98681734650098 40.74327330486988)","21 E 26th St","","New York",10010,"-73.98681734650098","40.74327330486988"
"Sepia International Inc the","POINT (-73.99450269931272 40.74425012968437)","148 W 24th St","Fl 11","New York",10011,"-73.99450269931272","40.74425012968437"
"Serbin Inna","POINT (-73.95440566613355 40.771111865592246)","342 E 77th St","","New York",10021,"-73.95440566613355","40.771111865592246"
"Serger Helen La Boetie","POINT (-73.96122592165297 40.77875554623769)","9 E 82ND ST","STE 3A","New York",10028,"-73.96122592165297","40.77875554623769"
"Seven Colors","POINT (-73.97882343724704 40.755678044060986)","555 5th Ave","","New York",10017,"-73.97882343724704","40.755678044060986"
"Shades of Art","POINT (-73.97949383741295 40.68753305466083)","47 Flatbush Ave","","Brooklyn",11217,"-73.97949383741295","40.68753305466083"
"Shainman Jack Gallery","POINT (-74.006263402563 40.7463655471036)","513 W 20th St","","New York",10011,"-74.006263402563","40.7463655471036"
"Shapolsky Anita Gallery","POINT (-73.96455976643841 40.7653957451292)","152 E 65th St","","New York",10021,"-73.96455976643841","40.7653957451292"
"Shawn Dulaney Studio","POINT (-73.992055668654 40.74147186911685)","34 W 22nd St","","New York",10010,"-73.992055668654","40.74147186911685"
"Shepherd & Derom Galleries","POINT (-73.96166653283252 40.77579398709301)","58 E 79th St","","New York",10021,"-73.96166653283252","40.77579398709301"
"Shickman H Gallery","POINT (-73.95972631317878 40.76901768334879)","220 E 72nd St","","New York",10021,"-73.95972631317878","40.76901768334879"
"Shulman B & M Inc","POINT (-73.9450654828952 40.600273523844436)","2623 Avenue U","","Brooklyn",11229,"-73.9450654828952","40.600273523844436"
"Sigrid Freundorfer Fine Art","POINT (-73.96809592587059 40.76848322657679)","790 Madison Ave","","New York",10021,"-73.96809592587059","40.76848322657679"
"Silverstein Gallery Inc","POINT (-74.00610391839206 40.7465866957298)","520 West 21st St","","New York",10011,"-74.00610391839206","40.7465866957298"
"Simply Marvelous Art","POINT (-73.79975655329956 40.70412220555415)","159-15 Jamaica Ave","","Jamaica",11432,"-73.79975655329956","40.70412220555415"
"Skoto Gallery","POINT (-74.00685030055344 40.746676581928234)","529 W 20th St","","New York",10011,"-74.00685030055344","40.746676581928234"
"Sloan McGill Collection","POINT (-73.95565084132937 40.65961513441343)","150 Midwood St","","Brooklyn",11225,"-73.95565084132937","40.65961513441343"
"Smack Mellon Studios","POINT (-73.98985972420431 40.703750736899)","92 Plymouth St","","Brooklyn",11201,"-73.98985972420431","40.703750736899"
"Smith Gallery","POINT (-74.00265775483314 40.748146010251716)","447 W 24th St","","New York",10011,"-74.00265775483314","40.748146010251716"
"Society For Renewal of Christian Art","POINT (-73.96219073494362 40.765647029599016)","217 E 66th St","","New York",10021,"-73.96219073494362","40.765647029599016"
"Soho 20","POINT (-74.00383257307128 40.74948117558807)","511 W 25th St","","New York",10001,"-74.00383257307128","40.74948117558807"
"Soho Photo Gallery","POINT (-74.00555633265509 40.718964186297654)","15 White St","","New York",10013,"-74.00555633265509","40.718964186297654"
"Soldwedel Kipp","POINT (-73.97074200370785 40.76224192243714)","470 Park Ave","","New York",10022,"-73.97074200370785","40.76224192243714"
"Soloman & Co Fine Art Gallerie","POINT (-73.96352461082171 40.77383485220909)","959 Madison Ave","","New York",10021,"-73.96352461082171","40.77383485220909"
"Sonnabend Gallery Inc","POINT (-74.00640433268863 40.74753287385608)","532 W 22nd St","","New York",10011,"-74.00640433268863","40.74753287385608"
"Soufer Gallery","POINT (-73.96219093364687 40.77578491128998)","1015 Madison Ave","","New York",10075,"-73.96219093364687","40.77578491128998"
"Spencer Brownstone Gallery","POINT (-74.0028519546277 40.72259290570126)","39 Wooster St.","","New York",10013,"-74.0028519546277","40.72259290570126"
"Sperone Westwater","POINT (-73.99926239580837 40.72544340968263)","121 Greene St","","New York",10012,"-73.99926239580837","40.72544340968263"
"Spring","POINT (-73.98739580880391 40.70224827687764)","126 Front St","","Brooklyn",11201,"-73.98739580880391","40.70224827687764"
"Sragow Ellen Ltd","POINT (-73.99302490428965 40.74652176477976)","153 West 27th Street","Room #505","New York",10001,"-73.99302490428965","40.74652176477976"
"St Etienne Galerie","POINT (-73.97562840191033 40.76331815027905)","24 W 57th St","","New York",10019,"-73.97562840191033","40.76331815027905"
"Staley-Wise Gallery","POINT (-73.9976700930255 40.72388325006023)","560 Broadway","","New York",10012,"-73.9976700930255","40.72388325006023"
"Start","POINT (-74.00158103055105 40.7219883380336)","50 Greene St","","New York",10013,"-74.00158103055105","40.7219883380336"
"State of Art","POINT (-73.95791517359595 40.73022121777638)","113 Franklin St","","Brooklyn",11222,"-73.95791517359595","40.73022121777638"
"Steigrad Lawrence Fine Arts","POINT (-73.96622595705455 40.769820128615144)","23 E 69th St","# 4F","New York",10021,"-73.96622595705455","40.769820128615144"
"Stein Gertrude Gallery","POINT (-73.98049753870134 40.76544488935683)","200 West 57th Street","","New York",10019,"-73.98049753870134","40.76544488935683"
"Stephen Downes Gallery","POINT (-73.99647297058152 40.720124872165876)","377 Broome St","","New York",10013,"-73.99647297058152","40.720124872165876"
"Stewart Waltzer Co","POINT (-74.00394089705402 40.7287135272124)","200 W Houston St","Apt 3D","New York",10014,"-74.00394089705402","40.7287135272124"
"Storefront For Art and Architecture","POINT (-73.9970682973752 40.72147742820455)","97 Kenmare St","","New York",10012,"-73.9970682973752","40.72147742820455"
"Stricoff Fine Art, Ltd.","POINT (-74.0057107770999 40.74989327559004)","564 W 25th St","","New York",10001,"-74.0057107770999","40.74989327559004"
"Studio Gallery","POINT (-73.97428548023957 40.78933482906021)","205 W 88th St","","New York",10024,"-73.97428548023957","40.78933482906021"
"Studio Tamar","POINT (-73.98429765855359 40.73821552093811)","152 E 22nd St","","New York",10010,"-73.98429765855359","40.73821552093811"
"Stux Gallery","POINT (-74.0048091965919 40.74932238784064)","530 W 25th St","","New York",10001,"-74.0048091965919","40.74932238784064"
"Sugarhill Arts Center","POINT (-73.94709266575242 40.830220401900085)","3658 Broadway","","New York",10031,"-73.94709266575242","40.830220401900085"
"Suite 106","POINT (-73.99892431070742 40.72359612141827)","112 Mercer St","","New York",10012,"-73.99892431070742","40.72359612141827"
"Sun Yi Jun","POINT (-73.9953458096245 40.71676281529191)","83 Bowery","","New York",10002,"-73.9953458096245","40.71676281529191"
"Susan Aberbach Fine Art","POINT (-73.97168388843812 40.76228904795565)","41 E 57th St","","New York",10022,"-73.97168388843812","40.76228904795565"
"Susan Megson Gallery","POINT (-74.00081320910148 40.72624920444544)","456 W Broadway","","New York",10012,"-74.00081320910148","40.72624920444544"
"Susan Rolfe Associates Fine Arts Ltd","POINT (-73.9711103443112 40.76448430163076)","654 Madison Ave","","New York",10021,"-73.9711103443112","40.76448430163076"
"Susan Sheehan Gallery","POINT (-74.00605481573004 40.747911706928555)","535 West 22nd Street","3rd Floor","New York",10011,"-74.00605481573004","40.747911706928555"
"Sutherland M","POINT (-73.96722779023571 40.766960246471086)","620 Park Ave","","New York",10021,"-73.96722779023571","40.766960246471086"
"Swiss Institute","POINT (-74.00006289362192 40.72224748487797)","495 Broadway","3rd Fl","New York",10012,"-74.00006289362192","40.72224748487797"
"Taglialatella Dominic J","POINT (-74.00394584152615 40.74952510204985)","511 West 25th Street","2nd Floor","New York",10001,"-74.00394584152615","40.74952510204985"
"Takako Tsuji Gallery","POINT (-73.97173794165505 40.762212046489296)","41 E 57th St","","New York",10022,"-73.97173794165505","40.762212046489296"
"Talwar Gallery","POINT (-73.98882748825802 40.7354581457437)","108 E 16th St","Fl 3","New York",10003,"-73.98882748825802","40.7354581457437"
"Tambaran Gallery","POINT (-73.96139898564891 40.77879668705261)","5 E 82nd St","","New York",10028,"-73.96139898564891","40.77879668705261"
"Tang Sarina","POINT (-73.96443413679928 40.774990807616135)","3 E 76th St","","New York",10021,"-73.96443413679928","40.774990807616135"
"Tanya Bonakdar Galery","POINT (-74.00619627853678 40.7471718785601)","521 W 21st St","","New York",10011,"-74.00619627853678","40.7471718785601"
"Tate","POINT (-74.00618826198466 40.74160876928588)","413 W 14th St","Ste 3","New York",10014,"-74.00618826198466","40.74160876928588"
"Tatistcheff Gallery Inc","POINT (-74.00694992343615 40.746593654628896)","529 West 20th Street","6th Floor","New York",10011,"-74.00694992343615","40.746593654628896"
"Team Gallery","POINT (-74.00393729550223 40.75021954194053)","527 W. 26th St.","","New York",10001,"-74.00393729550223","40.75021954194053"
"Teller Susan Gallery","POINT (-73.99746436311553 40.72429065859904)","568 Broadway","","New York",10012,"-73.99746436311553","40.72429065859904"
"Tenri Cultural Institute","POINT (-73.99609362076046 40.73640266876522)","43A W. 13th St.","1st Fl.","New York",10011,"-73.99609362076046","40.73640266876522"
"Thaw E V & Co","POINT (-73.96487147686322 40.77042622615332)","726 Park Ave","# 730","New York",10021,"-73.96487147686322","40.77042622615332"
"The Affordable Art Fair Llc","POINT (-73.99907018734407 40.741281452486206)","216 W 18th St","Ph","New York",10011,"-73.99907018734407","40.741281452486206"
"The Axa Gallery","POINT (-73.98178280268492 40.76169418454769)","787 7th Ave","","New York",10019,"-73.98178280268492","40.76169418454769"
"The Bohen Foundation","POINT (-74.00650280703749 40.74080796161279)","415 W 13th St","","New York",10014,"-74.00650280703749","40.74080796161279"
"The Chinese Art Gallery","POINT (-73.965656949278 40.75795522036082)","1050 2nd Ave","","New York",10022,"-73.965656949278","40.75795522036082"
"The Dollhaus Art Gallery","POINT (-73.96728726366906 40.710901835702906)","37 Broadway","","Brooklyn",11211,"-73.96728726366906","40.710901835702906"
"The Gallery 172","POINT (-73.87491939831187 40.831580396853354)","1620 E 172nd St","","Bronx",10472,"-73.87491939831187","40.831580396853354"
"The Old Print Shop Inc","POINT (-73.98210767882377 40.743741261738705)","150 Lexington Ave","","New York",10016,"-73.98210767882377","40.743741261738705"
"The Phatory Llc","POINT (-73.97947469330362 40.7257216580395)","618 E 9th St","","New York",10009,"-73.97947469330362","40.7257216580395"
"The Q Department","POINT (-74.00036767715117 40.719663113594706)","28 Howard St","","New York",10013,"-74.00036767715117","40.719663113594706"
"The Scene Gallery","POINT (-73.99097517163823 40.721062061560076)","42 Rivington St","","New York",10002,"-73.99097517163823","40.721062061560076"
"Thicket","POINT (-74.00824904575869 40.71858122441153)","10 Leonard St","","New York",10013,"-74.00824904575869","40.71858122441153"
"Think Art Gallery","POINT (-73.99403188876548 40.7546672150301)","336 W 37th St","","New York",10018,"-73.99403188876548","40.7546672150301"
"Thomas & Hirsch","POINT (-74.0022847048919 40.72343124213582)","375 W Broadway","","New York",10012,"-74.0022847048919","40.72343124213582"
"Thomas Erben Gallery","POINT (-74.00429401112444 40.749896437561546)","526 W 26th St","","New York",10001,"-74.00429401112444","40.749896437561546"
"Thomson C Art","POINT (-73.96430989681751 40.774006734867456)","19 E 75th St","","New York",10021,"-73.96430989681751","40.774006734867456"
"Three East Third St Corp","POINT (-73.99127036086344 40.726317169194125)","3 E 3rd St","","New York",10003,"-73.99127036086344","40.726317169194125"
"Throckmorton Fine Arts","POINT (-73.96844689694198 40.76094893064263)","145 E. 57th St.","3rd Fl.","New York",10022,"-73.96844689694198","40.76094893064263"
"Tilton Jack Gallery","POINT (-74.00200057983146 40.72225087144002)","47 Greene St","","New York",10013,"-74.00200057983146","40.72225087144002"
"Time Is Always Now","POINT (-74.00165245526333 40.72303600769511)","476 Broome St.","","New York",10013,"-74.00165245526333","40.72303600769511"
"Tk Oriental Antiques","POINT (-73.97182904482004 40.762345560476284)","41 E 57th St","","New York",10022,"-73.97182904482004","40.762345560476284"
"Tobey Fine Art","POINT (-73.99703668451343 40.72443534760606)","580 Broadway","","New York",10012,"-73.99703668451343","40.72443534760606"
"Ton Ying & Co","POINT (-73.96571787671886 40.758081125504276)","1050 2nd Ave","Rm 87","New York",10022,"-73.96571787671886","40.758081125504276"
"Tonal Motion Inc","POINT (-73.98546138708296 40.752454571078225)","1026 Avenue of the Americas","","New York",10018,"-73.98546138708296","40.752454571078225"
"Tonkonow Leslie","POINT (-74.00615109302096 40.74795821657633)","535 W 22nd St","","New York",10011,"-74.00615109302096","40.74795821657633"
"Tower Art Gallery","POINT (-74.0095084934269 40.70983827872425)","7 Maiden Ln","","New York",10038,"-74.0095084934269","40.70983827872425"
"Traditional Art Gallery Inc","POINT (-73.96585513475492 40.758034786660545)","1050 2nd Ave","","New York",10022,"-73.96585513475492","40.758034786660545"
"Triangle Editions","POINT (-73.9677731620756 40.764710751441086)","111 E 62nd St","","New York",10021,"-73.9677731620756","40.764710751441086"
"Tribes Gallery","POINT (-73.97988408148974 40.72155550779509)","285 E. Third St.","","New York",10009,"-73.97988408148974","40.72155550779509"
"Triple Candie","POINT (-73.9550632174421 40.81374657890127)","461 W 126th St","","New York",10027,"-73.9550632174421","40.81374657890127"
"Triton Collection the","POINT (-74.00704894372035 40.75257911943997)","224 12th Ave","","New York",10001,"-74.00704894372035","40.75257911943997"
"Troubetzkoy Paintings","POINT (-73.97777959495151 40.72422992194957)","366 E 8th St","","New York",10009,"-73.97777959495151","40.72422992194957"
"Tunick David","POINT (-73.96849022604967 40.76833078347223)","19 East 66th Street","","New York",10065,"-73.96849022604967","40.76833078347223"
"Turkana Gallery","POINT (-74.01245254988984 40.709767780555694)","125 Cedar St","","New York",10006,"-74.01245254988984","40.709767780555694"
"Ubu Gallery","POINT (-73.96124389562185 40.75904777703154)","416 EAST 59 STREET","","New York",10022,"-73.96124389562185","40.75904777703154"
"Under Minerva","POINT (-73.99264059463559 40.66242444886783)","656 5th Ave","","Brooklyn",11215,"-73.99264059463559","40.66242444886783"
"Up & Co","POINT (-74.00525333608093 40.718035958515735)","257 Church St","","New York",10013,"-74.00525333608093","40.718035958515735"
"Uptown Gallery the","POINT (-73.95834181152964 40.78195082570154)","1194 Madison Ave","","New York",10128,"-73.95834181152964","40.78195082570154"
"Urban Architecture Gallery of Applied Arts Inc","POINT (-73.95568290353586 40.73872000117206)","1205 Manhattan Ave","","Brooklyn",11222,"-73.95568290353586","40.73872000117206"
"Ursus Books & Prints, Ltd.","POINT (-73.96314947605681 40.77455057047168)","981 Madison Ave.","","New York",10021,"-73.96314947605681","40.77455057047168"
"Valenzi Gallery & Framing","POINT (-73.92609137053243 40.769757974132226)","2904 23rd St","","Astoria",11102,"-73.92609137053243","40.769757974132226"
"Van De Weghe Fine Art","POINT (-74.00485831599102 40.748295055076056)","521 W 23rd St","","New York",10011,"-74.00485831599102","40.748295055076056"
"Vance Jordan Fine Art","POINT (-73.96412402055026 40.7740762256816)","958 Madison Ave","","New York",10001,"-73.96412402055026","40.7740762256816"
"Veranda Design","POINT (-73.9771925909779 40.786271129139486)","225 W 83rd St","","New York",10024,"-73.9771925909779","40.786271129139486"
"Verona Arts Ltd","POINT (-73.97755224356966 40.75749369898942)","603 5th Ave","","New York",10017,"-73.97755224356966","40.75749369898942"
"Viart Corporation","POINT (-73.97064699525346 40.76043003631743)","120 E 56th St","","New York",10022,"-73.97064699525346","40.76043003631743"
"Vick Corporate Art Advisors","POINT (-74.00577306506825 40.749804550132424)","210 11th Ave","Rm 808","New York",10001,"-74.00577306506825","40.749804550132424"
"Vieille Russie Inc Antiqs & Jwlry","POINT (-73.97253001784061 40.76431012217276)","781 5th Ave","","New York",10022,"-73.97253001784061","40.76431012217276"
"Vietnam Art Design","POINT (-74.01012569658072 40.718403862409026)","345 Greenwich St","","New York",10013,"-74.01012569658072","40.718403862409026"
"Viewpoint Gallery","POINT (-73.99068944798088 40.73711798578153)","41 Union Sq W","Ph","New York",10003,"-73.99068944798088","40.73711798578153"
"Vincent Fremont Enterprises","POINT (-73.99187771197147 40.73550086652194)","1 Union Sq W","Ste 307","New York",10003,"-73.99187771197147","40.73550086652194"
"Viridian Artists Inc","POINT (-74.0047276435506 40.7492913813902)","530 W 25th St","","New York",10001,"-74.0047276435506","40.7492913813902"
"Visage Studios","POINT (-73.98424841060464 40.75055102601993)","12 West 37th Street","Rm 1211","New York",10018,"-73.98424841060464","40.75055102601993"
"Visual Arts Gallery","POINT (-74.00014431394463 40.725920598893055)","137 Wooster St","","New York",10012,"-74.00014431394463","40.725920598893055"
"Volpe Organization","POINT (-73.98809616725292 40.77482589447644)","100 W End Ave","","New York",10023,"-73.98809616725292","40.77482589447644"
"Wada Takashi Gallery","POINT (-73.98849960685845 40.76290654530983)","350 W 50th St","","New York",10019,"-73.98849960685845","40.76290654530983"
"Wade Maxx Art Gallery","POINT (-73.98013755406222 40.775209204933255)","191 Columbus Ave","","New York",10023,"-73.98013755406222","40.775209204933255"
"Wally Findlay Galleries","POINT (-73.96978732354177 40.76088972879902)","124 E 57th St","","New York",10022,"-73.96978732354177","40.76088972879902"
"Ward-Nasse Gallery","POINT (-74.00206948926476 40.726124349360326)","178 Prince St","","New York",10012,"-74.00206948926476","40.726124349360326"
"Washburn Galleries","POINT (-73.97548939715747 40.76329173421364)","20 W 57th St","Lbby","New York",10019,"-73.97548939715747","40.76329173421364"
"Washington Sq Outdoor Art Exhibit Inc","POINT (-73.98955957434988 40.73055351406694)","115 E 9th St","","New York",10003,"-73.98955957434988","40.73055351406694"
"Webster David","POINT (-74.00604993518832 40.742554940223926)","448 W 16th St","","New York",10011,"-74.00604993518832","40.742554940223926"
"Weisbrod Chinese Art Ltd","POINT (-73.97195658131889 40.76183606457246)","36 E 57th St","","New York",10022,"-73.97195658131889","40.76183606457246"
"Wellesley the","POINT (-73.9604313705021 40.76937886836503)","200 E 72nd St","","New York",10021,"-73.9604313705021","40.76937886836503"
"Wessel & O'Connor","POINT (-73.99604272085784 40.74658362420755)","242 W. 26th St.","","New York",10011,"-73.99604272085784","40.74658362420755"
"Westbeth Gallery","POINT (-74.00892207369608 40.73681609073264)","55 Bethune St","# 318-C","New York",10014,"-74.00892207369608","40.73681609073264"
"Western Art Collectors Society","POINT (-74.09740510896602 40.59524979737109)","1374 Richmond Rd","","Staten Island",10304,"-74.09740510896602","40.59524979737109"
"Westwood Gallery","POINT (-73.99734433829671 40.724422962305674)","568 Broadway","","New York",10012,"-73.99734433829671","40.724422962305674"
"Weybridge Fine Art","POINT (-73.9609780584284 40.77737493217594)","30 E 81st St","","New York",10028,"-73.9609780584284","40.77737493217594"
"Whas Cultural Art Center Inc","POINT (-73.93249802646282 40.85624732743534)","4450 Broadway","","New York",10040,"-73.93249802646282","40.85624732743534"
"White Box","POINT (-74.00398260805142 40.7503229067573)","525 W. 26th St.","","New York",10001,"-74.00398260805142","40.7503229067573"
"White Columns Inc","POINT (-74.00412298674621 40.7390733900545)","320 W 13th St","","New York",10014,"-74.00412298674621","40.7390733900545"
"Whitfield James Fine Art","POINT (-73.99223344839037 40.7341517204105)","107 University Pl","","New York",10003,"-73.99223344839037","40.7341517204105"
"Wickiser Walter Gallery Inc","POINT (-74.00583422026774 40.74970893312495)","210 Eleventh Avenue","Suite 303","New York",10001,"-74.00583422026774","40.74970893312495"
"Willow Woodstock Artistic Enterprises","POINT (-73.98503773768752 40.7273179875329)","92 Saint Marks Pl","","New York",10009,"-73.98503773768752","40.7273179875329"
"Wilmer Jenning Gallery","POINT (-73.9829756398302 40.721588112300466)","215 E 2nd St","","New York",10009,"-73.9829756398302","40.721588112300466"
"Winston Wachter Mayer Fine Art","POINT (-74.00469933980688 40.7494705508339)","530 W 25th St","# 102","New York",10001,"-74.00469933980688","40.7494705508339"
"Winter Works On Paper","POINT (-73.95596898652045 40.718843857404806)","167 North 9th Street","","Brooklyn",11211,"-73.95596898652045","40.718843857404806"
"Wolf Daniel Inc","POINT (-73.96208739067471 40.775154974749334)","52 E 78th St","","New York",10021,"-73.96208739067471","40.775154974749334"
"Woodward Gallery","POINT (-73.99181719407879 40.7190134351541)","133 Eldridge Street","","New York",10002,"-73.99181719407879","40.7190134351541"
"WORLD AFRICA","POINT (-73.94753650623625 40.83514503903612)","779 RIVERSIDE DR","APT A60","New York",10032,"-73.94753650623625","40.83514503903612"
"World Art Center","POINT (-74.00717581854839 40.71059948663547)","104 Nassau St","","New York",10038,"-74.00717581854839","40.71059948663547"
"Yancey Richardson Gallery","POINT (-74.00606501650554 40.747990092758)","535 W 22nd St","","New York",10011,"-74.00606501650554","40.747990092758"
"Yasuda Fine Arts Inc","POINT (-73.97760350331404 40.76154759316407)","15 W 53rd St","","New York",10019,"-73.97760350331404","40.76154759316407"
"Yorks Shona Gallery","POINT (-73.99930952043819 40.72346095072394)","99 Spring St","","New York",10012,"-73.99930952043819","40.72346095072394"
"Yorkville Art Gallery & Framing","POINT (-73.94977563288387 40.784125667613885)","1687 3rd Ave","","New York",10128,"-73.94977563288387","40.784125667613885"
"Yoshii Gallery","POINT (-73.96353644734154 40.77472916422377)","980 Madison Avenue","3rd Floor","New York",10075,"-73.96353644734154","40.77472916422377"
"Yung Hee Kim","POINT (-73.96503049783473 40.77480194940473)","945 5th Ave","","New York",10021,"-73.96503049783473","40.77480194940473"
"Zabriskie Gallery","POINT (-73.97608678432614 40.764177063493484)","41 W 57th St","Fl 4","New York",10019,"-73.97608678432614","40.764177063493484"
"Zarre Andre Gallery","POINT (-74.00694053104591 40.74665656097067)","529 W 20th St","","New York",10011,"-74.00694053104591","40.74665656097067"
"Zetterquist Galleries","POINT (-73.96909886452057 40.76855090982749)","3 East 66th Street","#1B","New York",10065,"-73.96909886452057","40.76855090982749"
"Zito Studio Gallery","POINT (-73.98835221789699 40.71959638253985)","122 Ludlow St","","New York",10002,"-73.98835221789699","40.71959638253985"
"Zwirner & Wirth","POINT (-73.96656358087144 40.769475354080704)","32 E. 69th St.","","New York",10021,"-73.96656358087144","40.769475354080704"
"Zwirner David Gallery","POINT (-74.00696818173046 40.745894958673)","525 W 19th St","","New York",10011,"-74.00696818173046","40.745894958673"
"Priska C. Juschka Fine Art Inc","POINT (-74.00436440935563 40.7512662970876)","547 W 27th St","","New York",10001,"-74.00436440935563","40.7512662970876"
"1 2 3 Watts Gallery","POINT (-74.00902348594506 40.72385716638239)","123 Watts St","","New York",10013,"-74.00902348594506","40.72385716638239"
"12 Below","POINT (-73.99106783126521 40.734601392796556)","853 Broadway","","New York",10003,"-73.99106783126521","40.734601392796556"
"14 Sculptors Gallery","POINT (-73.99752290955341 40.725255318583244)","168 Mercer St","","New York",10012,"-73.99752290955341","40.725255318583244"
"1405 Art Gallery","POINT (-73.9579834660085 40.769747219832055)","1405 2nd Ave","","New York",10021,"-73.9579834660085","40.769747219832055"
"2 Welancora Gallery","POINT (-73.94151974328003 40.68407789876472)","410 Jefferson Ave","","Brooklyn",11221,"-73.94151974328003","40.68407789876472"
"280 Modern","POINT (-73.91448247157493 40.70924362650799)","1875 Dekalb Ave","","Ridgewood",11385,"-73.91448247157493","40.70924362650799"
"3 Costantino Fioratti Helen C","POINT (-73.96468514091578 40.77217101486103)","36 E 73rd St","","New York",10021,"-73.96468514091578","40.77217101486103"
"303 Gallery","POINT (-74.00709988223846 40.74748972764634)","547 W 21st Street","","New York",10011,"-74.00709988223846","40.74748972764634"
"33rd St Galleria","POINT (-73.99086172847174 40.74998473697619)","401 7th Ave","","New York",10001,"-73.99086172847174","40.74998473697619"
"33rd Street Galleria","POINT (-73.9896764403985 40.74995772882257)","131 W 33rd St","Lbby","New York",10001,"-73.9896764403985","40.74995772882257"
"4 Chambers Fine Art","POINT (-74.00711818986275 40.745480983048324)","522 West 19th Street","","New York",10011,"-74.00711818986275","40.745480983048324"
"5 Robin Rice Gallery","POINT (-73.95513650506956 40.806039095014725)","325 W 118th St","","New York",10026,"-73.95513650506956","40.806039095014725"
"531 Artspace","POINT (-73.94713438435649 40.72132181792675)","531 Graham Ave","","Brooklyn",11222,"-73.94713438435649","40.72132181792675"
"73 St Farmers Market","POINT (-73.953015464766 40.76730472453463)","1368 York Ave","","New York",10021,"-73.953015464766","40.76730472453463"
"A Clean Well Lighted Place Inc","POINT (-74.00455563265132 40.734536111030195)","363 Bleecker St","","New York",10014,"-74.00455563265132","40.734536111030195"
"A J ARTS LTD","POINT (-73.91691325451417 40.618609648042934)","6208 MILL LN","","Brooklyn",11234,"-73.91691325451417","40.618609648042934"
"A.I.R. Gallery","POINT (-74.00247723876265 40.72220573764243)","40 Wooster St","","New York",10013,"-74.00247723876265","40.72220573764243"
"AAA-Abbey Mdsng Co Inc","POINT (-73.9699306449376 40.64223848857642)","618 Coney Island Ave","","Brooklyn",11218,"-73.9699306449376","40.64223848857642"
"Abada Felix Inc","POINT (-73.95369906884567 40.77982818893016)","1556 3rd Ave","","New York",10128,"-73.95369906884567","40.77982818893016"
"Aberbach Fine Art","POINT (-73.97156738540961 40.76234164563961)","41 E 57th Street","14th Floor Suite1401","New York",10022,"-73.97156738540961","40.76234164563961"
"Aca Galleries","POINT (-74.00671307190173 40.7466637235728)","529 W 20th St","","New York",10011,"-74.00671307190173","40.7466637235728"
"Ace Gallery","POINT (-74.00800569763308 40.72518059211007)","275 Hudson St","","New York",10013,"-74.00800569763308","40.72518059211007"
"Acquavella Galleries Inc","POINT (-73.96264902751969 40.776241997318024)","18 E 79th St","","New York",10021,"-73.96264902751969","40.776241997318024"
"Adam Baumgold Fine Art","POINT (-73.96107580310452 40.77566375107602)","74 E. 79th St.","","New York",10021,"-73.96107580310452","40.77566375107602"
"Adam Williams Fine Art Ltd","POINT (-73.96206753819425 40.776967240487316)","24 East 80th Street","","New York",10075,"-73.96206753819425","40.776967240487316"
"Adams Fund Art Buyers","POINT (-73.9859359709644 40.78013538557862)","330 W 72nd St","Bsmt","New York",10023,"-73.9859359709644","40.78013538557862"
"Adams George Gallery","POINT (-73.97614892855628 40.76409153208361)","41 W 57th St","Lbby","New York",10019,"-73.97614892855628","40.76409153208361"
"Adelson Galleries","POINT (-73.95485347510008 40.77602747338123)","219 E 82nd St","","New York",10028,"-73.95485347510008","40.77602747338123"
"Adler & Conkright Fine Art Llc","POINT (-73.96624091514376 40.770975244655446)","24 E 71st St","","New York",10021,"-73.96624091514376","40.770975244655446"
"African Arts Center Inc","POINT (-74.00566649112767 40.751919578935706)","615 W 27th St","","New York",10001,"-74.00566649112767","40.751919578935706"
"Africart Motherland Inc","POINT (-73.9473959108493 40.81484873741814)","2478 Frederick Douglas Blvd","","New York",10027,"-73.9473959108493","40.81484873741814"
"Agora Gallery","POINT (-74.00462798050833 40.74943954389719)","530 W 25th St","","New York",10001,"-74.00462798050833","40.74943954389719"
"Akira Ikeda Gallery","POINT (-74.00198720202906 40.731598062845464)","17 Cornelia St","","New York",10014,"-74.00198720202906","40.731598062845464"
"Alan Brasington Inc","POINT (-74.00465111517532 40.73792128413487)","23 8th Ave","","New York",10014,"-74.00465111517532","40.73792128413487"
"Alaska on Madison","POINT (-73.96107281271044 40.77729595234076)","1065 Madison Ave","","New York",10028,"-73.96107281271044","40.77729595234076"
"Alexander and Bonin","POINT (-74.00599210995543 40.74468740455551)","132 10th Ave","","New York",10011,"-74.00599210995543","40.74468740455551"
"Alexander's Sculptural Svce","POINT (-73.97794941736475 40.749983526424735)","117 E 39th St","","New York",10016,"-73.97794941736475","40.749983526424735"
"Alexandre Gallery","POINT (-73.97161806065871 40.76226849395318)","41 E 57th St","","New York",10022,"-73.97161806065871","40.76226849395318"
"Alliance of Queens Artists","POINT (-73.85334628561375 40.71066978214045)","99-10 Metropolitan Ave.","","Forest Hills",11375,"-73.85334628561375","40.71066978214045"
"Blum Peter-Blum Arts","POINT (-74.00107688198324 40.72459069512193)","99 Wooster St","","New York",10012,"-74.00107688198324","40.72459069512193"
"Alter Silver Gallery Corp","POINT (-73.9657483087514 40.75820702064953)","1050 2nd Ave","","New York",10022,"-73.9657483087514","40.75820702064953"
"American European Fine Art Inc","POINT (-73.95473277767529 40.78188518223692)","115 E 89th St","","New York",10128,"-73.95473277767529","40.78188518223692"
"American Fine Arts Co","POINT (-74.00610750035331 40.74749326770152)","530 W 22nd St","","New York",10011,"-74.00610750035331","40.74749326770152"
"American Folk Art Museum - Eva and Morris Feld Gallery","POINT (-73.98142236076949 40.773145324578465)","2 Lincoln Square","","New York",10023,"-73.98142236076949","40.773145324578465"
"Ameringer & Yohe Fine Arts","POINT (-74.00570231168705 40.747676900804294)","525 West 22nd Street","","New York",10011,"-74.00570231168705","40.747676900804294"
"Amos Eno Gallery","POINT (-73.98909223945212 40.702839860367)","111 Front Street","","Brooklyn",11201,"-73.98909223945212","40.702839860367"
"An American Space","POINT (-73.9537319541543 40.7834768790123)","118 E 92nd St","","New York",10128,"-73.9537319541543","40.7834768790123"
"Ancient Art of the New World Inc","POINT (-73.95334298863992 40.76900975698234)","525 E 72nd St","","New York",10021,"-73.95334298863992","40.76900975698234"
"Andover Gallery","POINT (-73.99023922743137 40.72083117119045)","60 Rivington St","","New York",10002,"-73.99023922743137","40.72083117119045"
"Andrew Edlin Gallery","POINT (-74.00584416050778 40.744698184918754)","134 Tenth Avenue","","New York",10011,"-74.00584416050778","40.744698184918754"
"Andy Warhol Authentication Board Inc","POINT (-74.0065781938964 40.7464976437538)","525 W 20th St","","New York",10011,"-74.0065781938964","40.7464976437538"
"Angel Orensanz Foundation","POINT (-73.98566578523841 40.7211425940389)","172 Norfolk St","","New York",10002,"-73.98566578523841","40.7211425940389"
"Anita Friedman Fine Arts","POINT (-73.96348524835835 40.77479505310624)","980 Madison Ave","","New York",10021,"-73.96348524835835","40.77479505310624"
"Annex the","POINT (-74.0072691859354 40.751751244756214)","601 W 26th St","","New York",10001,"-74.0072691859354","40.751751244756214"
"Annie Yau Gallery","POINT (-73.97318628787116 40.78882752190978)","173 W 88th St","","New York",10024,"-73.97318628787116","40.78882752190978"
"Annina Nosei Gallery","POINT (-74.00603307178372 40.74745710909231)","528 W 22nd St","","New York",10011,"-74.00603307178372","40.74745710909231"
"Anthony Grant Inc","POINT (-73.97595129099413 40.764030920387206)","37 W 57th St","","New York",10019,"-73.97595129099413","40.764030920387206"
"Antik","POINT (-74.00559642923686 40.71861368160094)","104 Franklin St","","New York",10013,"-74.00559642923686","40.71861368160094"
"Antiquarium Fine Ancient Arts Gallery Ltd","POINT (-73.96448583694475 40.77370829773766)","948 Mad Ave","","New York",10001,"-73.96448583694475","40.77370829773766"
"Anton Kern Gallery Inc","POINT (-74.0071625805658 40.74626698919683)","532 W 20th St","","New York",10011,"-74.0071625805658","40.74626698919683"
"Apex Art","POINT (-74.00442891117446 40.719029423996275)","291 Church St","","New York",10013,"-74.00442891117446","40.719029423996275"
"April's Gallery","POINT (-73.9477984775635 40.82550711004373)","501 W 145th St","","New York",10031,"-73.9477984775635","40.82550711004373"
"Arader W Graham Gallery","POINT (-73.96506780787688 40.771919812794174)","29 E 72nd St","","New York",10021,"-73.96506780787688","40.771919812794174"
"Arash Gallery","POINT (-73.96632495463712 40.758354983332694)","1051 2nd Ave","","New York",10022,"-73.96632495463712","40.758354983332694"
"Arcadia Fine Arts","POINT (-74.00191255468341 40.72233560547136)","51 Greene St","","New York",10013,"-74.00191255468341","40.72233560547136"
"Archibald Arts","POINT (-73.99447221869303 40.76045676364441)","602 10th Ave","","New York",10036,"-73.99447221869303","40.76045676364441"
"Archive Consulting & Management Services","POINT (-74.00406816395126 40.74945618747075)","511 W 25th St","","New York",10001,"-74.00406816395126","40.74945618747075"
"Ariel Meyerowitz Gallery","POINT (-73.95720540498857 40.74562272150074)","4720 Center Blvd.","Suite #2005","Long Island City",11109,"-73.95720540498857","40.74562272150074"
"Ariston Development Group","POINT (-74.00720672426719 40.738630448977844)","78 Horatio St","","New York",10014,"-74.00720672426719","40.738630448977844"
"Arleen G Becker Gallery Inc","POINT (-73.98078712426901 40.74557327933392)","200 Lexington Avenue","","New York",10022,"-73.98078712426901","40.74557327933392"
"Art & Interiors Inc","POINT (-73.96625646159961 40.76095557965403)","979 3rd Ave","","New York",10022,"-73.96625646159961","40.76095557965403"
"Art Advice Corporate Art Consultants","POINT (-73.97844632760412 40.744572073525504)","200 E 33rd St","Lbby","New York",10016,"-73.97844632760412","40.744572073525504"
"Art Advisory Svces Inc","POINT (-73.96938236367227 40.764001186042606)","530 Park Ave","","New York",10065,"-73.96938236367227","40.764001186042606"
"Art Asap","POINT (-73.99102178777146 40.764162754909265)","444 W 50th St","","New York",10019,"-73.99102178777146","40.764162754909265"
"Art Auction Advisory Svces","POINT (-73.96934511430464 40.76406092278879)","530 Park Avenue","","New York",10065,"-73.96934511430464","40.76406092278879"
"Art Avenues Inc","POINT (-73.98484183259625 40.77886824857134)","240 W End Ave","","New York",10023,"-73.98484183259625","40.77886824857134"
"Art Finds","POINT (-73.97973389273444 40.79017492134076)","140 Riverside Dr","","New York",10024,"-73.97973389273444","40.79017492134076"
"Blumka Gallery","POINT (-73.95986031902645 40.76968727518326)","209 E 72nd St","","New York",10021,"-73.95986031902645","40.76968727518326"
"Art Gallery & Custom Framing","POINT (-73.99179292850394 40.73243385000468)","799 Broadway","","New York",10003,"-73.99179292850394","40.73243385000468"
"Art In General","POINT (-74.00187734226864 40.71809470427269)","79 Walker St","","New York",10013,"-74.00187734226864","40.71809470427269"
"Art Loft Gallery","POINT (-73.99773834075489 40.72119226004358)","199 Lafayette St","","New York",10012,"-73.99773834075489","40.72119226004358"
"Art Merchandising and Media Inc","POINT (-73.96958162555178 40.766684593083745)","26 E 64th St","Bsmt","New York",10021,"-73.96958162555178","40.766684593083745"
"Art Metaphysics Education","POINT (-73.99233661009842 40.756067985751834)","323 W 39th St","","New York",10018,"-73.99233661009842","40.756067985751834"
"Art Placement International","POINT (-73.95878267381052 40.77733032956459)","957 Park Ave","Apt 5W","New York",10028,"-73.95878267381052","40.77733032956459"
"Art Projects International Inc","POINT (-74.00940343348547 40.72229804091343)","429 Greenwich St","Ph","New York",10013,"-74.00940343348547","40.72229804091343"
"Art Resources Transfer Inc","POINT (-74.00595090831266 40.749984570237736)","210 11th Ave","","New York",10001,"-74.00595090831266","40.749984570237736"
"Art Student Showcase Inc","POINT (-73.99720725800789 40.72310856403507)","248 Lafayette St","","New York",10012,"-73.99720725800789","40.72310856403507"
"Art Vue","POINT (-73.9800983571645 40.671529522114525)","441 3rd St","","Brooklyn",11215,"-73.9800983571645","40.671529522114525"
"Art Wise","POINT (-73.99324200487263 40.74498903638776)","133 W 25th St","","New York",10001,"-73.99324200487263","40.74498903638776"
"Arte Primitivo-Howard S Rose Gallery","POINT (-73.96929380183833 40.76784299499881)","3 E 65th St","","New York",10021,"-73.96929380183833","40.76784299499881"
"Artefina International Inc","POINT (-73.97523365982514 40.596547373158224)","246 Avenue U","","Brooklyn",11223,"-73.97523365982514","40.596547373158224"
"Artemis Fine Arts Inc","POINT (-73.96520338983287 40.77279040346651)","23 E 73rd St","","New York",10021,"-73.96520338983287","40.77279040346651"
"Artenova Ltd","POINT (-73.98126402551996 40.76647974955509)","1780 Broadway","","New York",10019,"-73.98126402551996","40.76647974955509"
"Arterres","POINT (-73.99715508196216 40.72287262300235)","242 Lafayette St","","New York",10012,"-73.99715508196216","40.72287262300235"
"Artique-the Art of Framing Inc","POINT (-73.97067461349071 40.79532708994234)","2580 Broadway","","New York",10025,"-73.97067461349071","40.79532708994234"
"Artist Prod Gallery","POINT (-74.00085020193522 40.72034082024991)","448 Broadway","","New York",10013,"-74.00085020193522","40.72034082024991"
"Artists Space","POINT (-74.00187570391502 40.72169943485471)","38 Greene St","","New York",10013,"-74.00187570391502","40.72169943485471"
"Artlife Gallery","POINT (-74.00476655191915 40.725415004981215)","155 Ave of the Americas","","New York",10013,"-74.00476655191915","40.725415004981215"
"Art-Lore Inc","POINT (-73.95578568860223 40.738065759799625)","1155 Manhattan Ave","","Brooklyn",11222,"-73.95578568860223","40.738065759799625"
"Artrepreneur","POINT (-73.96511389261455 40.77469948486251)","945 5th Ave","","New York",10021,"-73.96511389261455","40.77469948486251"
"Arts Action Research","POINT (-73.98338749200313 40.68664178336951)","423 Atlantic Ave","","Brooklyn",11217,"-73.98338749200313","40.68664178336951"
"Arts at University Settlement/Speyer Hall","POINT (-73.99119730157719 40.720680151916206)","185 Eldridge St.","","New York",10002,"-73.99119730157719","40.720680151916206"
"Arts Du Monde","POINT (-73.99092836171616 40.743583968067256)","40 W 25th St","","New York",10010,"-73.99092836171616","40.743583968067256"
"Arts India","POINT (-73.98879876096638 40.74320506078967)","206 5th Ave","","New York",10010,"-73.98879876096638","40.74320506078967"
"Arts Proper International Inc","POINT (-73.97562041606622 40.76346975208143)","24 W 57th St","","New York",10019,"-73.97562041606622","40.76346975208143"
"Artscope Inc","POINT (-73.97009199445296 40.763254120526184)","502 Park Ave","","New York",10022,"-73.97009199445296","40.763254120526184"
"Ash Fine Art","POINT (-73.9618353271081 40.775535837495916)","51 E 78th St","","New York",10021,"-73.9618353271081","40.775535837495916"
"Asher Gallant Gallery","POINT (-73.97259126282007 40.76067960028377)","62 E 55th St","","New York",10022,"-73.97259126282007","40.76067960028377"
"Ashione Art Gallery","POINT (-74.00280458102809 40.73571649956089)","41 Perry St","","New York",10014,"-74.00280458102809","40.73571649956089"
"Ashoka Crafts","POINT (-73.97994522704968 40.78157132600765)","202 W 77th St","","New York",10024,"-73.97994522704968","40.78157132600765"
"Atelier A-E Ent","POINT (-73.99087594403446 40.74237388620432)","35 West 23rd Street","#3","New York",10010,"-73.99087594403446","40.74237388620432"
"Atelier International Art Group Inc","POINT (-73.99671187722127 40.72480608921537)","594 Broadway","","New York",10012,"-73.99671187722127","40.72480608921537"
"Atlantic Gallery","POINT (-73.99143107504511 40.74746646219944)","135 West 29th St","suite 601","New York",10001,"-73.99143107504511","40.74746646219944"
"Atmosphere Galleries Inc","POINT (-74.00600863130276 40.74476246542635)","134 10th Ave","","New York",10011,"-74.00600863130276","40.74476246542635"
"Audiello Fine Art Inc","POINT (-74.0044220151553 40.75009455123575)","526 W 26th St","","New York",10001,"-74.0044220151553","40.75009455123575"
"Audrey C Art & Jewels","POINT (-73.96572040008752 40.763249971573764)","167 E 61st St","","New York",10021,"-73.96572040008752","40.763249971573764"
"Australian Aboriginal Fine Art Gallery Of New York","POINT (-73.95015415750696 40.79501690627845)","1255 5th Ave","","New York",10029,"-73.95015415750696","40.79501690627845"
"Av Art Gallery & Custom Framing Inc","POINT (-73.99938013572218 40.744615751459236)","235 8th Ave","","New York",10011,"-73.99938013572218","40.744615751459236"
"Available Art Llc","POINT (-73.98529286493043 40.685308792518455)","204 Dean St","","Brooklyn",11217,"-73.98529286493043","40.685308792518455"
"AVC Contemporary Arts Gallery","POINT (-73.97167802578994 40.762183792857236)","41 E. 57th St.","","New York",10022,"-73.97167802578994","40.762183792857236"
"Avshalom Eitan Fine Arts","POINT (-73.9386614826445 40.85075794194175)","461 Fort Washington Ave","","New York",10033,"-73.9386614826445","40.85075794194175"
"Axelle Fine Art","POINT (-73.98851197926002 40.68807777539699)","312 Atlantic Ave","","Brooklyn",11201,"-73.98851197926002","40.68807777539699"
"Axelle Fine Arts Gallery Ltd","POINT (-74.00149047896814 40.72411800152975)","148 Spring St","","New York",10012,"-74.00149047896814","40.72411800152975"
"Aztec Marketing Co","POINT (-74.00648308644872 40.70789856563353)","90 John St","","New York",10038,"-74.00648308644872","40.70789856563353"
"Back To Africa Imports","POINT (-73.98868276932478 40.74347151482428)","6 W 26th St","","New York",10010,"-73.98868276932478","40.74347151482428"
"Back To Roots Inc","POINT (-73.87589510879744 40.667315043315995)","440 Montauk Ave","","Brooklyn",11208,"-73.87589510879744","40.667315043315995"
"Bag One Arts","POINT (-73.97606171702485 40.78195247672717)","110 W 79th St","","New York",10024,"-73.97606171702485","40.78195247672717"
"Balalaika Arts & Crafts From Russia & Former Ussr","POINT (-73.94657505515615 40.78336844632731)","313 E 95th St","","New York",10128,"-73.94657505515615","40.78336844632731"
"BALMAR REALTY","POINT (-73.9690646648923 40.75945091322308)","155 E 55TH ST","","New York",10022,"-73.9690646648923","40.75945091322308"
"Barbara Gladstone Gallery","POINT (-74.00450714605243 40.748880397450456)","515 W 24th St","","New York",10011,"-74.00450714605243","40.748880397450456"
"Baron Boisante Editions","POINT (-74.00725575414192 40.72988710604914)","421 Hudson St","","New York",10014,"-74.00725575414192","40.72988710604914"
"Barrington Gallery of London Ltd","POINT (-73.97908152115053 40.756502433488485)","572 5th Ave","","New York",10036,"-73.97908152115053","40.756502433488485"
"Bayo Studios","POINT (-73.93513085993379 40.70365264266154)","210 Varet Street","","Brooklyn",11206,"-73.93513085993379","40.70365264266154"
"Beadleston Gallery","POINT (-73.97451739244705 40.7626057748781)","724 5th Ave","","New York",10019,"-73.97451739244705","40.7626057748781"
"Behr Thyssen Ltd","POINT (-74.00854193445365 40.72216389522143)","165 Hudson Street","","New York",10013,"-74.00854193445365","40.72216389522143"
"Belanthi","POINT (-73.9929238023326 40.689201818871105)","142 Court St","","Brooklyn",11201,"-73.9929238023326","40.689201818871105"
"Bellwether Gallery","POINT (-74.0059259359394 40.7447310240188)","134 10th Ave","","New York",10011,"-74.0059259359394","40.7447310240188"
"Bench Dogs","POINT (-73.96628257552109 40.710321511428695)","60 Broadway","","Brooklyn",11211,"-73.96628257552109","40.710321511428695"
"Benedetti Gallery Inc","POINT (-73.99603743947266 40.72326204494683)","52 Prince St","","New York",10012,"-73.99603743947266","40.72326204494683"
"Bernarducci Meisel Gallery","POINT (-73.97603744051094 40.76406500441014)","37 W 57th St","","New York",10019,"-73.97603744051094","40.76406500441014"
"Bernstein David Primitive Art","POINT (-73.96377490774012 40.77042906088558)","737 Park Ave","","New York",10021,"-73.96377490774012","40.77042906088558"
"Berry-Hill Galleries Inc","POINT (-73.9667430851897 40.770844831227215)","11 E 70th St","","New York",10021,"-73.9667430851897","40.770844831227215"
"Beverly Sacks Fine Art","POINT (-73.9648004088197 40.76175802302484)","229 E 60th St","","New York",10022,"-73.9648004088197","40.76175802302484"
"Beyond the Wall","POINT (-73.97967536880768 40.754433283117876)","529 5th Ave","Fl 7","New York",10017,"-73.97967536880768","40.754433283117876"
"BICYCLE PAINTINGS.COM","POINT (-73.98314702965975 40.71868691762229)","106 Ridge Street","","New York",10002,"-73.98314702965975","40.71868691762229"
"Big Cat Gallery","POINT (-73.98866228119658 40.72079932966255)","154 Orchard Street","","New York",10002,"-73.98866228119658","40.72079932966255"
"Bill Bace Gallery","POINT (-74.00271111656463 40.72252116551896)","39 Wooster St","","New York",10013,"-74.00271111656463","40.72252116551896"
"Bill Hodges Gallery","POINT (-73.97553999334467 40.76343700260623)","24 W 57th St","","New York",10019,"-73.97553999334467","40.76343700260623"
"Bitforms","POINT (-74.00682960405737 40.74649787405831)","529 W 20th St","","New York",10011,"-74.00682960405737","40.74649787405831"
"Black & Black Art Gallery","POINT (-73.7933657552114 40.70542390024909)","9215 Merrick Blvd","","Jamaica",11433,"-73.7933657552114","40.70542390024909"
"Black & White Gallery Inc","POINT (-73.95464222868095 40.718442376759846)","483 Driggs Ave","","Brooklyn",11211,"-73.95464222868095","40.718442376759846"
"Bleier Milton A Corp","POINT (-73.97287192878989 40.75960676311047)","386 Park Ave","","New York",10016,"-73.97287192878989","40.75960676311047"
"Blue Mountain Gallery Inc","POINT (-74.00476841500598 40.74923625162883)","530 W 25th St","","New York",10001,"-74.00476841500598","40.74923625162883"
"Bodanna Inc","POINT (-73.9841197487225 40.726527210577046)","123 E 7th St","","New York",10009,"-73.9841197487225","40.726527210577046"
"Bolivar Arellano Gallery","POINT (-73.98391618028155 40.72761183175187)","420 E 9th St","","New York",10009,"-73.98391618028155","40.72761183175187"
"Bonakdar Jancou Gallery","POINT (-74.00611785599605 40.74700168705312)","521 W 21st St","","New York",10011,"-74.00611785599605","40.74700168705312"
"BORDEN JANET INC","POINT (-73.99768478344558 40.72404630376343)","560 BROADWAY","","New York",10012,"-73.99768478344558","40.72404630376343"
"Bose Pacia Modern","POINT (-74.00359348605816 40.74976022129376)","508 W 26th St","","New York",10001,"-74.00359348605816","40.74976022129376"
"Bound and Unbound","POINT (-74.00687162371617 40.75159814355892)","601 W. 26th St","12th Fl.","New York",10001,"-74.00687162371617","40.75159814355892"
"Bowery Gallery","POINT (-74.0048454378513 40.7492698417932)","530 W 25th St","","New York",10001,"-74.0048454378513","40.7492698417932"
"Brenda Taylor Gallery","POINT (-74.00382577002729 40.74935024583751)","511 W. 25th Street","#401","New York",10001,"-74.00382577002729","40.74935024583751"
"Bridgewater Gallery of Fine Arts Inc","POINT (-73.98412586213658 40.72292592490373)","176 East 3rd Street","Suite 5G","New York",10009,"-73.98412586213658","40.72292592490373"
"Bronx River Art Center","POINT (-73.87815507293308 40.84059708783155)","1087 East Tremont Ave","","Bronx",10460,"-73.87815507293308","40.84059708783155"
"Brooke Alexander Gallery","POINT (-74.00226165676219 40.72320925083491)","59 Wooster St.","","New York",10012,"-74.00226165676219","40.72320925083491"
"Brooklyn Arts Exchange","POINT (-73.98543282004819 40.66976941835214)","421 Fifth Ave.","","Brooklyn",11215,"-73.98543282004819","40.66976941835214"
"Brooklyn Fireproof","POINT (-73.92918028109621 40.70788792853058)","119 Ingraham St","(at Porter Ave)","Brooklyn",11237,"-73.92918028109621","40.70788792853058"
"Broome Street Gallery the","POINT (-74.00262453001721 40.723386285969056)","498 Broome St","","New York",10013,"-74.00262453001721","40.723386285969056"
"Bruce Palmer Galleries","POINT (-73.97712674122711 40.79219979489217)","180 Riverside Drive","#6E","New York",10024,"-73.97712674122711","40.79219979489217"
"Bruce Silverstein Gallery","POINT (-74.00514718956966 40.74712572614031)","504 W. 22nd St.","","New York",10011,"-74.00514718956966","40.74712572614031"
"Bruton Gallery Inc","POINT (-73.96984506060707 40.764310982455726)","40 E 61st St","Apt 12A","New York",10021,"-73.96984506060707","40.764310982455726"
"Buzzco Assoc Inc","POINT (-73.99375528599944 40.72583066510465)","33 Bleecker St","","New York",10012,"-73.99375528599944","40.72583066510465"
"C & M Arts","POINT (-73.96202951033725 40.775617472779885)","45 E. 78th St.","","New York",10021,"-73.96202951033725","40.775617472779885"
"Caelum Gallery","POINT (-74.00446731782955 40.75002305381688)","526 W 26th St","","New York",10001,"-74.00446731782955","40.75002305381688"
"Caldwell Snyder Gallery","POINT (-74.00041760702801 40.72589116418898)","451 W Broadway","","New York",10012,"-74.00041760702801","40.72589116418898"
"Candyland Films","POINT (-74.00091721530092 40.72028153197904)","446 Broadway","","New York",10013,"-74.00091721530092","40.72028153197904"
"Caravan International Co","POINT (-73.9535025179309 40.77813815345596)","210 E 86th St","","New York",10028,"-73.9535025179309","40.77813815345596"
"Carboni Inc","POINT (-73.98021697964026 40.755459551878126)","2 W 45th St","Ste 1702","New York",10036,"-73.98021697964026","40.755459551878126"
"Carley Ann M Atty","POINT (-73.9973611388614 40.722633690350754)","73 Spring St","","New York",10012,"-73.9973611388614","40.722633690350754"
"Carlton Rochell","POINT (-73.97170663665887 40.76238724724583)","41 E 57th St","","New York",10022,"-73.97170663665887","40.76238724724583"
"Carnegie Frame Inc","POINT (-73.98077111551655 40.76385541238935)","160 W 55th St","","New York",10019,"-73.98077111551655","40.76385541238935"
"Cartoon Gallery","POINT (-73.84605039041223 40.720381392925155)","7028 Austin St","","Forest Hills",11375,"-73.84605039041223","40.720381392925155"
"Cartoonews Gallery","POINT (-73.974107770942 40.76231329247612)","721 5th Ave","","New York",10022,"-73.974107770942","40.76231329247612"
"Casa Linda Galleries Inc","POINT (-73.9473830025364 40.78335247304253)","300 E 95th St","","New York",10128,"-73.9473830025364","40.78335247304253"
"Casey M Kaplan Inc","POINT (-74.00652923481697 40.741132496582004)","416 W 14th St","","New York",10014,"-74.00652923481697","40.741132496582004"
"Catherine Conway Inc","POINT (-73.9982052041324 40.73684463256616)","112 W 13th St","","New York",10011,"-73.9982052041324","40.73684463256616"
"Cavaliero Fine Arts","POINT (-73.99156925539044 40.75282326623039)","242 W 36th St","","New York",10018,"-73.99156925539044","40.75282326623039"
"Cavin-Morris","POINT (-73.9977986844257 40.723899092548244)","560 Broadway","Ste.405B","New York",10012,"-73.9977986844257","40.723899092548244"
"Cds Gallery","POINT (-73.96117091996693 40.77570413829265)","74 E 79th St","","New York",10075,"-73.96117091996693","40.77570413829265"
"Celtic Art","POINT (-73.94476783424302 40.746401426012)","2415 Jackson Ave","","Long Island City",11101,"-73.94476783424302","40.746401426012"
"Century Artists Inc","POINT (-74.00473558135599 40.74941972749017)","530 W 25th St","","New York",10001,"-74.00473558135599","40.74941972749017"
"Ceres Gallery","POINT (-74.00452368669892 40.7513240583896)","547 W 27th St","","New York",10001,"-74.00452368669892","40.7513240583896"
"Ceres Gallery","POINT (-73.99703728520817 40.72479496325291)","584 Broadway","","New York",10012,"-73.99703728520817","40.72479496325291"
"Cfm Gallery","POINT (-73.99942509620003 40.7245719123004)","112 Greene St","","New York",10012,"-73.99942509620003","40.7245719123004"
"Chappell Gallery","POINT (-74.00446166325382 40.75015743023644)","526 W 26th St","","New York",10001,"-74.00446166325382","40.75015743023644"
"Chat Noir Design","POINT (-73.93207458950114 40.859297374170694)","295 Bennett Ave","Apt 3A","New York",10040,"-73.93207458950114","40.859297374170694"
"Cheim & Read","POINT (-74.00513583496961 40.75001940951716)","547 W 25th St","","New York",10001,"-74.00513583496961","40.75001940951716"
"Chelsea Ceramic Guild","POINT (-73.99869441074755 40.74238759923636)","233 W 19th St","","New York",10011,"-73.99869441074755","40.74238759923636"
"China 2000","POINT (-73.97319626715543 40.76285383147861)","5 E 57th St","","New York",10022,"-73.97319626715543","40.76285383147861"
"China 2000 Fine Arts","POINT (-73.95334298863992 40.76900975698234)","434A East 75th Street","","New York",10021,"-73.95334298863992","40.76900975698234"
"Chinatown Frame & Art Inc","POINT (-73.99658767895113 40.71670513429927)","40 Elizabeth St","","New York",10013,"-73.99658767895113","40.71670513429927"
"Chinoh Art Gallery","POINT (-73.99315955728967 40.73615406197117)","69 5th Ave","","New York",10003,"-73.99315955728967","40.73615406197117"
"Chowder Inc","POINT (-73.9928117143286 40.73915340718913)","15 W 18th St","","New York",10011,"-73.9928117143286","40.73915340718913"
"Christiane Nienaber Contemporary Art","POINT (-73.99227383034534 40.72199731357535)","191 Chrystie St","","New York",10002,"-73.99227383034534","40.72199731357535"
"Christine Burgin Gallery","POINT (-73.99954508014842 40.741998855079025)","243 W 18th St","","New York",10011,"-73.99954508014842","40.741998855079025"
"Cinque Gallery","POINT (-73.99759293518275 40.723977353489985)","560 BROADWAY","","New York",10012,"-73.99759293518275","40.723977353489985"
"Claire Oliver Fine Arts Inc","POINT (-74.00338485238753 40.750088833951594)","513 West 26th Street","","New York",10001,"-74.00338485238753","40.750088833951594"
"Clampart","POINT (-74.0046388004567 40.74977517556294)","531 W 25th St","","New York",10001,"-74.0046388004567","40.74977517556294"
"Clementine Gallery","POINT (-74.00610794104533 40.75209329454193)","623 W 27th St","","New York",10001,"-74.00610794104533","40.75209329454193"
"Clinton Hill Simply Art & Framing","POINT (-73.96081858855342 40.69419973833638)","583 Myrtle Ave","","Brooklyn",11205,"-73.96081858855342","40.69419973833638"
"Coda Gallery","POINT (-74.00156428959271 40.7228952359004)","472 Broome St","","New York",10013,"-74.00156428959271","40.7228952359004"
"Cole Sylvan Gallery","POINT (-73.97735639962028 40.764657700242466)","101 W 57th St","","New York",10019,"-73.97735639962028","40.764657700242466"
"College of Staten Island - Center for the Arts","POINT (-74.14969498644858 40.59966211624753)","2800 Victory Blvd.","","Staten Island",10314,"-74.14969498644858","40.59966211624753"
"Columbia University - Miriam and Ira D.Wallach Art Gallery","POINT (-73.96041689796523 40.80854103175546)","1190 Amsterdam Ave","Schermerhorn Hall","New York",10025,"-73.96041689796523","40.80854103175546"
"Columbus Art Gallery Inc","POINT (-73.97130508413868 40.78831274243924)","588 Columbus Ave","","New York",10024,"-73.97130508413868","40.78831274243924"
"Columbus Circle Gallery","POINT (-73.98122765129693 40.767337596838594)","1800 Broadway","","New York",10019,"-73.98122765129693","40.767337596838594"
"Commerce Graphics Ltd Inc","POINT (-73.95232972645383 40.76774167526338)","504 E 74th St","","New York",10021,"-73.95232972645383","40.76774167526338"
"Common Ground","POINT (-73.99533452627297 40.7386880809658)","55 W 16th St","","New York",10011,"-73.99533452627297","40.7386880809658"
"Conner Rosenkranz","POINT (-73.96490958939056 40.77346565558056)","19 E 74th St","","New York",10021,"-73.96490958939056","40.77346565558056"
"Contemporary African Art","POINT (-73.96880031818482 40.80321373735236)","330 W 108th St","","New York",10025,"-73.96880031818482","40.80321373735236"
"Contemporary art gallery in Chelsea. Wooster Gardens","POINT (-73.99759430263842 40.72367259056902)","558 Broadway","","New York",10012,"-73.99759430263842","40.72367259056902"
"Cook Fine Art","POINT (-73.96110242662888 40.77724263728855)","1063 Madison Ave","","New York",10028,"-73.96110242662888","40.77724263728855"
"Coploff Gallery","POINT (-74.00455453174276 40.75002046684971)","526 W. 26th Street","","New York",10001,"-74.00455453174276","40.75002046684971"
"Cordier & Ekstrom Inc","POINT (-73.95352973471765 40.76951265923006)","417 E 75th St","","New York",10021,"-73.95352973471765","40.76951265923006"
"Corning Gallery at Steuben, The","POINT (-73.97028166426591 40.76449624945973)","667 Madison Ave.","","New York",10017,"-73.97028166426591","40.76449624945973"
"Cowles Charles Gallery Inc","POINT (-74.00542084214204 40.74933735680623)","537 W 24th St","","New York",10011,"-74.00542084214204","40.74933735680623"
"Creative Art USA Inc","POINT (-74.0049746202106 40.726154556319926)","30 Vandam St","","New York",10013,"-74.0049746202106","40.726154556319926"
"Crg Art Gallery","POINT (-74.00613861893268 40.747791970281675)","535 W 22nd St","","New York",10011,"-74.00613861893268","40.747791970281675"
"Criswick Assoc","POINT (-73.97180489195577 40.749019477708224)","325 E 41st St","Apt 1108","New York",10017,"-73.97180489195577","40.749019477708224"
"Crown Art Gallery Inc","POINT (-73.98510259493322 40.7606295440217)","1609 Broadway","","New York",10019,"-73.98510259493322","40.7606295440217"
"Crystal Art Gallery","POINT (-73.9884446804236 40.74413705033391)","230 5th Ave","","New York",10001,"-73.9884446804236","40.74413705033391"
"Cuban Art Space","POINT (-73.99422632616184 40.748659539526265)","231 West 29th Street","4 Fl","New York",10001,"-73.99422632616184","40.748659539526265"
"Cuchifritos","POINT (-73.98763036458672 40.719134872515085)","120 Essex St","","New York",10002,"-73.98763036458672","40.719134872515085"
"Culture Art Gallery Llc","POINT (-74.0013730500698 40.72477529364541)","415 W Broadway","","New York",10012,"-74.0013730500698","40.72477529364541"
"Culture Crossing Inc","POINT (-73.95466929760467 40.785582110662745)","40 E 94th St","Apt 29D","New York",10128,"-73.95466929760467","40.785582110662745"
"Curatorial Art Advisory Service","POINT (-73.991839113497 40.73721433725364)","5 E 16th St","","New York",10003,"-73.991839113497","40.73721433725364"
"Cypher Editions","POINT (-74.0030602341102 40.721523477818316)","22 Wooster St","Apt 5","New York",10013,"-74.0030602341102","40.721523477818316"
"Czech Center","POINT (-73.95642199661727 40.76912228742895)","321 E 73rd St","","New York",10021,"-73.95642199661727","40.76912228742895"
"Dactyl Foundation for the Arts","POINT (-74.00318448262557 40.72232071981226)","64 Grand St.","","New York",10013,"-74.00318448262557","40.72232071981226"
"Dai Ichi Arts","POINT (-73.96959312029144 40.753954555993076)","249 E 48th St","","New York",10017,"-73.96959312029144","40.753954555993076"
"Dalva Brothers Inc","POINT (-73.96290104490528 40.77466684832077)","52 East 77th Street","","New York",10075,"-73.96290104490528","40.77466684832077"
"D'amelio-Terras","POINT (-74.0055520248167 40.74761065159657)","525 W 22nd St","","New York",10011,"-74.0055520248167","40.74761065159657"
"Damp Frog Productions Inc","POINT (-73.99227135502149 40.714570461315674)","1 Orchard St","","New York",10002,"-73.99227135502149","40.714570461315674"
"Danese","POINT (-74.00526783363229 40.74917263162958)","535 W 24th St","","New York",10011,"-74.00526783363229","40.74917263162958"
"Danette Koke Fine Art","POINT (-74.00855042211563 40.736795505405766)","55 Bethune St","# 318-C","New York",10014,"-74.00855042211563","40.736795505405766"
"Daniel H Roberts Studio","POINT (-74.00910862531528 40.723234499825296)","9 Desbrosses Street","","New York",10013,"-74.00910862531528","40.723234499825296"
"David Killen Fine Arts","POINT (-73.95066796118358 40.782015393252806)","1641 3rd Ave","","New York",10128,"-73.95066796118358","40.782015393252806"
"David Nolan New York","POINT (-74.00267817786079 40.752214461415825)","527 W 29th St","","New York",10001,"-74.00267817786079","40.752214461415825"
"Davis Leron Galries","POINT (-73.96910832179955 40.76723679475443)","746 Madison Ave","","New York",10021,"-73.96910832179955","40.76723679475443"
"DC Moore Gallery","POINT (-73.97447205322294 40.76266950704102)","724 5th Ave","","New York",10019,"-73.97447205322294","40.76266950704102"
"Dca Gallery","POINT (-74.00542351894609 40.74755765301907)","525 W 22nd St","","New York",10011,"-74.00542351894609","40.74755765301907"
"De Nagy Tibor Art Gallery","POINT (-73.97457852897854 40.76270743101199)","724 5th Ave","","New York",10019,"-73.97457852897854","40.76270743101199"
"Dean Andree M","POINT (-73.9570627331135 40.77982311306998)","1035 Park Ave","","New York",10028,"-73.9570627331135","40.77982311306998"
"Debs & Co","POINT (-74.00385234258083 40.750174752747)","531 W 26th St","","New York",10001,"-74.00385234258083","40.750174752747"
"Greer Gallery Inc","POINT (-74.00186315287489 40.7239389109311)","81 Wooster St","","New York",10012,"-74.00186315287489","40.7239389109311"
"Grimm Jay Gallery","POINT (-74.00212168209907 40.7510595149452)","505 W 28th St","","New York",10001,"-74.00212168209907","40.7510595149452"
"Guggenheim Asher Assocs Inc","POINT (-73.9990622110042 40.7372488643944)","138 W 13th St","","New York",10011,"-73.9990622110042","40.7372488643944"
"Guggenheim Asher Assocs Inc","POINT (-73.99910998490243 40.73718457573518)","138 W 13th St","","New York",10011,"-73.99910998490243","40.73718457573518"
"Guy Regal Ltd","POINT (-73.96495626685143 40.76188643835601)","223 E 60th St","","New York",10022,"-73.96495626685143","40.76188643835601"
"Hall & Knight U S A Ltd","POINT (-73.96794454875419 40.768910155623715)","21 E 67th St","","New York",10021,"-73.96794454875419","40.768910155623715"
"Hammer Galleries","POINT (-73.975734568345 40.76401470369091)","33 W 57th St","","New York",10019,"-73.975734568345","40.76401470369091"
"Hanover Sq Gallery","POINT (-73.97128381308526 40.676988341293075)","202 Park Place","","Brooklyn",11238,"-73.97128381308526","40.676988341293075"
"Harari & Johns Inc","POINT (-73.95977553480449 40.778105575324446)","63 E 82nd St","","New York",10028,"-73.95977553480449","40.778105575324446"
"Harlan & Weaver Intaglio","POINT (-73.99305508913066 40.71550207928403)","83 Canal St","","New York",10002,"-73.99305508913066","40.71550207928403"
"Harlem Art Gallery","POINT (-73.94805168745432 40.8036180850416)","86 W 119th St","","New York",10026,"-73.94805168745432","40.8036180850416"
"Hazlitt Gooden & Fox","POINT (-73.9640012351852 40.77471647280008)","17 E 76th St","","New York",10021,"-73.9640012351852","40.77471647280008"
"Healing Arts","POINT (-73.96002001571911 40.71967845207522)","135 Wythe Ave.","","Brooklyn",11211,"-73.96002001571911","40.71967845207522"
"Heilman Phillip Douglas","POINT (-73.92493699902394 40.6984896734577)","1336 Dekalb Ave","","Brooklyn",11221,"-73.92493699902394","40.6984896734577"
"Heller Gallery","POINT (-74.0067206428654 40.74120764729715)","420 W. 14th St.","","New York",10014,"-74.0067206428654","40.74120764729715"
"Helly Nahmad Gallery Inc","POINT (-73.96323779489721 40.774416430969474)","975 Madison Ave","","New York",10021,"-73.96323779489721","40.774416430969474"
"Hemingway African Gallery","POINT (-73.9655457665656 40.7581241408079)","1050 2nd Ave","","New York",10022,"-73.9655457665656","40.7581241408079"
"Henoch Gallery","POINT (-74.0053147575198 40.75002818583608)","555 W 25th St","","New York",10001,"-74.0053147575198","40.75002818583608"
"Hirschl & Adler Galleries","POINT (-73.96647641081128 40.77076084144848)","21 E. 70th St.","","New York",10021,"-73.96647641081128","40.77076084144848"
"Historical Design Collection Inc","POINT (-73.96284773040335 40.761389379957556)","306 E 61st St","","New York",10021,"-73.96284773040335","40.761389379957556"
"Hochman Irena Fine Art Ltd","POINT (-73.96078341201554 40.77848561052193)","1100 Madison Ave","Ph","New York",10028,"-73.96078341201554","40.77848561052193"
"HOFFELD JEFFREY & CO","POINT (-73.94890830099149 40.77816244331415)","360 E 88TH ST","","New York",10128,"-73.94890830099149","40.77816244331415"
"Holmberg I","POINT (-73.98065901634286 40.75150284613401)","280 Madison Ave","","New York",10016,"-73.98065901634286","40.75150284613401"
"Honda Fine Art","POINT (-73.99246319880072 40.72642837625517)","55 Great Jones St","","New York",10012,"-73.99246319880072","40.72642837625517"
"Hoorn-Ashby Gallery","POINT (-73.96860379433987 40.767882883252746)","766 Madison Ave","","New York",10021,"-73.96860379433987","40.767882883252746"
"Horan Vivian Fine Art","POINT (-73.9670738408604 40.768537070095064)","35 E 67th St","","New York",10021,"-73.9670738408604","40.768537070095064"
"Horus Art Enterprises","POINT (-73.96351076201721 40.764803819817715)","200 E 65th St","","New York",10021,"-73.96351076201721","40.764803819817715"
"Howard Greenberg Gallery","POINT (-73.97186782969052 40.76244504777328)","41 E 57th St","","New York",10022,"-73.97186782969052","40.76244504777328"
"Howard Nowes Ancient Art","POINT (-73.98814826963647 40.74691119903928)","1220 Broadway","","New York",10001,"-73.98814826963647","40.74691119903928"
"Howard Scott Gallery","POINT (-73.95345448354107 40.77461119589775)","303 East 81st Street","","New York",10028,"-73.95345448354107","40.77461119589775"
"Hubert Gallery","POINT (-73.96187638479367 40.776947514032074)","1046 Madison Ave","","New York",10075,"-73.96187638479367","40.776947514032074"
"Hubert Gallery North","POINT (-73.96193403425211 40.776872063779045)","1046 Madison Ave","","New York",10021,"-73.96193403425211","40.776872063779045"
"Hut Gallery the","POINT (-73.98698065821226 40.688071767104695)","84 Hoyt St","","Brooklyn",11201,"-73.98698065821226","40.688071767104695"
"Hutton Leonard Galleries","POINT (-73.97191597124912 40.76237510383545)","41 E 57th St","","New York",10022,"-73.97191597124912","40.76237510383545"
"Hutton Leonard Galleries Facs","POINT (-73.97196242180334 40.76231286147938)","41 E 57th St","","New York",10022,"-73.97196242180334","40.76231286147938"
"Hw Gerst","POINT (-73.96458035810642 40.77531717502446)","955 5th Ave","","New York",10021,"-73.96458035810642","40.77531717502446"
"I & L Image Corp","POINT (-74.00694991806704 40.74654218708572)","529 W 20th St","","New York",10011,"-74.00694991806704","40.74654218708572"
"I C Editions","POINT (-74.00516169402023 40.748773512319616)","522 West 24 Street","","New York",10011,"-74.00516169402023","40.748773512319616"
"I Perry","POINT (-74.00978326525507 40.72561866772278)","481 Washington St","","New York",10013,"-74.00978326525507","40.72561866772278"
"Illustration House Inc","POINT (-73.99252245382793 40.74424858093448)","110 W 25th St","","New York",10001,"-73.99252245382793","40.74424858093448"
"Images Corporate Art Services","POINT (-73.96308722144697 40.75708480426336)","400 E 56th St","","New York",10022,"-73.96308722144697","40.75708480426336"
"Incredibleart.Com Inc","POINT (-74.0020440530794 40.72091220652958)","25 Mercer St","","New York",10013,"-74.0020440530794","40.72091220652958"
"Indians On Columbus","POINT (-73.97464955491265 40.783734791519265)","452 Columbus Ave","","New York",10024,"-73.97464955491265","40.783734791519265"
"Infinity Fine Arts Inc","POINT (-74.00371024848562 40.749516496539414)","511 W 25th St","","New York",10001,"-74.00371024848562","40.749516496539414"
"Inner City Art Gallery Inc","POINT (-73.94456809199143 40.81352929524498)","2251 Adam Clayton Powell Jr Blvd","","New York",10027,"-73.94456809199143","40.81352929524498"
"Innovative Art Gallery Inc","POINT (-73.99954513707648 40.73816930578245)","154 W 14th St","","New York",10011,"-73.99954513707648","40.73816930578245"
"Inter Art Gallery","POINT (-74.00418890924199 40.74805554041248)","225 10th Ave","","New York",10011,"-74.00418890924199","40.74805554041248"
"International Print Center New York","POINT (-74.00429062364167 40.75004717968598)","526 W 26th St","","New York",10001,"-74.00429062364167","40.75004717968598"
"Irit Baniel Studio","POINT (-73.95735398174229 40.7164045276523)","582 DRIGGS AVENUE","","Brooklyn",11211,"-73.95735398174229","40.7164045276523"
"Ise Art Foundation","POINT (-73.99864411855633 40.723922271208345)","555 Broadway","","New York",10012,"-73.99864411855633","40.723922271208345"
"Isselbacher Gallery Inc","POINT (-73.95822258024364 40.78033056977963)","64 E 86th St","","New York",10028,"-73.95822258024364","40.78033056977963"
"J Cacciola Galleries","POINT (-74.00583688216618 40.752060917406105)","617 W 27th St","","New York",10001,"-74.00583688216618","40.752060917406105"
"J M Art Gallery","POINT (-73.98154615389973 40.765825510593395)","1760 Broadway","","New York",10019,"-73.98154615389973","40.765825510593395"
"Jadite Galleries","POINT (-73.9896747288487 40.76396460949374)","413 W 50th St","","New York",10019,"-73.9896747288487","40.76396460949374"
"Jain Marunouchi Gallery","POINT (-73.97565215202877 40.763430134805255)","24 W 57th St","","New York",10019,"-73.97565215202877","40.763430134805255"
"James Cohan Gallery","POINT (-74.00409870159304 40.75039640107759)","533 W 26th St","","New York",10001,"-74.00409870159304","40.75039640107759"
"James Graham & Sons Gallery","POINT (-73.96267506646566 40.77588115815901)","1014 Madison Ave","","New York",10021,"-73.96267506646566","40.77588115815901"
"Jane St Lifer Fine Art Inc","POINT (-73.98862441738362 40.77701410325828)","140 Riverside Blvd","","New York",10069,"-73.98862441738362","40.77701410325828"
"Janoray Charles Llc","POINT (-73.96416053612774 40.7748444073569)","11 E 76th St","","New York",10021,"-73.96416053612774","40.7748444073569"
"Japanese Art Dealers Assoc of Ny","POINT (-73.96394358993504 40.77479192411187)","17 East 76th Street","3rd Fl.","New York",10021,"-73.96394358993504","40.77479192411187"
"Jbpa Llc","POINT (-73.9967778291044 40.73683275799809)","65 W 13th St","","New York",10011,"-73.9967778291044","40.73683275799809"
"Jeff Lewis Studio","POINT (-74.00896057406709 40.72321297846333)","9 Desbrosses Street","","New York",10013,"-74.00896057406709","40.72321297846333"
"Jeffrey Coploff Fine Art Ltd","POINT (-74.00382218748146 40.749854628383076)","508 W 26th St","","New York",10001,"-74.00382218748146","40.749854628383076"
"Jimmy's Art Gallery","POINT (-73.98122671271219 40.77815490400495)","166 W 72nd St","","New York",10023,"-73.98122671271219","40.77815490400495"
"Joan Peck Limited Art Gallery","POINT (-73.97885634594451 40.77350103659161)","1 W 67th St","","New York",10023,"-73.97885634594451","40.77350103659161"
"Joan Whalen Fine Art","POINT (-73.97556493500292 40.763387047022924)","24 W. 57th St.","#507","New York",10019,"-73.97556493500292","40.763387047022924"
"John Elder Gallery","POINT (-74.00677134356313 40.74664084459763)","529 W 20th St","","New York",10011,"-74.00677134356313","40.74664084459763"
"John McEnroe Gallery","POINT (-74.00213615731462 40.72208698618874)","41 Greene St.","","New York",10013,"-74.00213615731462","40.72208698618874"
"John Stevenson Gallery","POINT (-74.0000774177737 40.745726964723296)","338 W 23rd St","","New York",10011,"-74.0000774177737","40.745726964723296"
"Jonathan Shorr Gallery","POINT (-73.99657105382644 40.72411874896452)","109 Crosby St","","New York",10012,"-73.99657105382644","40.72411874896452"
"Judaica Illuminations","POINT (-73.96395886372667 40.61677557755918)","1664 Coney Island Ave","","Brooklyn",11230,"-73.96395886372667","40.61677557755918"
"Julie Artisans Gallery","POINT (-73.96866769882247 40.76778190375854)","762 Madison Ave","","New York",10065,"-73.96866769882247","40.76778190375854"
"Julie Saul Gallery","POINT (-74.00619865854952 40.747897917029235)","535 W 22nd St","","New York",10011,"-74.00619865854952","40.747897917029235"
"JUNE BATEMAN FINE  GALLERY","POINT (-73.98937070413018 40.74367565231837)","1133 BROADWAY","","New York",10010,"-73.98937070413018","40.74367565231837"
"K S Art","POINT (-74.00518747584822 40.71764123916027)","73 Leonard St","","New York",10013,"-74.00518747584822","40.71764123916027"
"Kahan Fine Art Galleries Ltd","POINT (-73.95504392869945 40.76682971486002)","422 E 72nd St","","New York",10021,"-73.95504392869945","40.76682971486002"
"Kaller-Kimche R Inc","POINT (-73.96473207114876 40.77345637212837)","23 E 74th St","Apt 8E","New York",10021,"-73.96473207114876","40.77345637212837"
"Kang Byung","POINT (-73.96128970630069 40.77867171291437)","9 E 82nd St","","New York",10028,"-73.96128970630069","40.77867171291437"
"Kapoor Galleries Inc","POINT (-73.96257906971837 40.77523960172669)","40 E 78th St","","New York",10021,"-73.96257906971837","40.77523960172669"
"Kashya Hildebrand","POINT (-74.00443296960334 40.749689464502005)","531 W 25th St","","New York",10001,"-74.00443296960334","40.749689464502005"
"Katherine Blackburne Studios","POINT (-74.0092436136626 40.72325270997295)","9 Desbrosses Street","","New York",10013,"-74.0092436136626","40.72325270997295"
"Kathryn Markel Fine Arts Inc","POINT (-74.00693865733352 40.74671946685839)","529 W 20th St","","New York",10011,"-74.00693865733352","40.74671946685839"
"Katz Steven","POINT (-73.98920391142987 40.73552235994015)","32 Union Sq","","New York",10001,"-73.98920391142987","40.73552235994015"
"Keats R Stuart","POINT (-73.97949841195816 40.747763911829956)","120 E 36th St","","New York",10016,"-73.97949841195816","40.747763911829956"
"Keith Copley Gallery","POINT (-74.00074259197737 40.75569251417376)","545 W 34th St","","New York",10001,"-74.00074259197737","40.75569251417376"
"Keith de Lellis Gallery","POINT (-73.96155651636568 40.77664162052785)","1045 MADISON AVENUE","#3","New York",10075,"-73.96155651636568","40.77664162052785"
"Kelly June Gallery","POINT (-73.99753864716389 40.72507391316515)","591 Broadway","","New York",10012,"-73.99753864716389","40.72507391316515"
"Kem Art Studio","POINT (-73.99409339068872 40.73593099214826)","80 5TH AVE RM 1506","","New York",10011,"-73.99409339068872","40.73593099214826"
"Kempner Jim Fine Art","POINT (-74.00425506803612 40.74796362962052)","501 W 23rd St","","New York",10011,"-74.00425506803612","40.74796362962052"
"Kenkeleba Gallery","POINT (-73.98286541179743 40.72203676941313)","214 E 2nd St","","New York",10009,"-73.98286541179743","40.72203676941313"
"Kent Gallery","POINT (-74.00473857598294 40.749869918239376)","541 West 25th Street","Second Floor","New York",10001,"-74.00473857598294","40.749869918239376"
"Kentler International Drawing Space","POINT (-74.0129928623173 40.67694141344959)","353 Van Brunt Street","","Brooklyn",11231,"-74.0129928623173","40.67694141344959"
"Keogh & Riehlman Fine Art","POINT (-73.96541795682192 40.77253250636124)","24 E 73rd St","","New York",10021,"-73.96541795682192","40.77253250636124"
"Keya Gallery","POINT (-74.01076961289816 40.70762944901861)","14 Wall Street","","New York",10005,"-74.01076961289816","40.70762944901861"
"Kim Foster Gallery","POINT (-74.00686532600677 40.746549340378905)","529 W 20th St","","New York",10011,"-74.00686532600677","40.746549340378905"
"Kind Phylis Gallery","POINT (-73.9958687612381 40.74652398746522)","236 West 26th Street","","New York",10001,"-73.9958687612381","40.74652398746522"
"King David Art Gallery","POINT (-73.99400408130022 40.743159854946946)","128 West 23rd Street","","New York",10011,"-73.99400408130022","40.743159854946946"
"Kinz, Tillou + Feigen","POINT (-74.00701008243772 40.746639401211105)","529 West 20th Street","11th Fl.","New York",10011,"-74.00701008243772","40.746639401211105"
"Klagsbrun Nicole Gallery","POINT (-74.00433592507247 40.74997309876673)","526 W 26th St","","New York",10001,"-74.00433592507247","40.74997309876673"
"Klotz Sirmon Gallery","POINT (-74.00395717447677 40.74962416092564)","511 W 25th St","","New York",10001,"-74.00395717447677","40.74962416092564"
"Kokon Inc","POINT (-73.96748220301508 40.76744319208954)","58 E 66th St","","New York",10021,"-73.96748220301508","40.76744319208954"
"Kraus Carole Ltd","POINT (-73.99350190270265 40.75525430231709)","330 W 38th St","","New York",10018,"-73.99350190270265","40.75525430231709"
"Kraushaar Galleries","POINT (-73.9611544113061 40.77564019343842)","74 E 79th St","","New York",10075,"-73.9611544113061","40.77564019343842"
"Kravets Wehby","POINT (-74.00604109296434 40.747108529879654)","521 W 21st St","","New York",10011,"-74.00604109296434","40.747108529879654"
"Kravets Wehby Gallery","POINT (-74.00627467608743 40.74707248993365)","521 W 21st St","","New York",10011,"-74.00627467608743","40.74707248993365"
"Krienke Kendra","POINT (-73.97094198879634 40.78367572050502)","230 Central Park W","","New York",10024,"-73.97094198879634","40.78367572050502"
"L A Cotton","POINT (-73.97082633217697 40.763904879908004)","645 Madison Ave","","New York",10001,"-73.97082633217697","40.763904879908004"
"La Belle Epoque Vintage Posters Inc","POINT (-73.97835368272915 40.778385112403946)","280 Columbus Ave","","New York",10023,"-73.97835368272915","40.778385112403946"
"Lally J J & Co","POINT (-73.9719328106951 40.762474585758326)","41 E 57th St","","New York",10022,"-73.9719328106951","40.762474585758326"
"Lamontage","POINT (-74.00587275253571 40.74995614887753)","210 11th Ave","Fl 7","New York",10001,"-74.00587275253571","40.74995614887753"
"Landy Fine Art","POINT (-73.98517983706303 40.71492376014234)","264 E Broadway","","New York",10002,"-73.98517983706303","40.71492376014234"
"Langotsky Gamba","POINT (-74.00861745382724 40.72708180065917)","537 Greenwich St","","New York",10013,"-74.00861745382724","40.72708180065917"
"Lehman College - Art Gallery","POINT (-73.89291005670557 40.87458975046948)","250 Bedford Park Blvd West","","Bronx",10468,"-73.89291005670557","40.87458975046948"
"Lehmann Maupin","POINT (-74.00481381980848 40.75019804508463)","540 W 26th St","","New York",10001,"-74.00481381980848","40.75019804508463"
"Lelong Galerie","POINT (-74.00419547934735 40.750043737854995)","526 W 26th St","","New York",10001,"-74.00419547934735","40.750043737854995"
"Lemmons Durham Contemporary Art","POINT (-74.00593617330293 40.74986483882258)","210 11th Ave","","New York",10001,"-74.00593617330293","40.74986483882258"
"Lennon Weinberg Inc","POINT (-74.00412150736602 40.74911048760112)","514 W 25th St","","New York",10001,"-74.00412150736602","40.74911048760112"
"Leo Castelli Gallery","POINT (-73.96371064617742 40.77501230396186)","18 E 77th St","","New York",10021,"-73.96371064617742","40.77501230396186"
"Leo Kaplan Modern Ltd","POINT (-73.97007751754849 40.761091378887265)","114 E 57th St","","New York",10022,"-73.97007751754849","40.761091378887265"
"Leo Koenig Inc","POINT (-74.00588391810967 40.74887766804935)","545 West 23rd Street","","New York",10011,"-74.00588391810967","40.74887766804935"
"Leon Tovar Gallery","POINT (-73.96652981846641 40.77112198760146)","16 E 71st St","Ste 1A","New York",10021,"-73.96652981846641","40.77112198760146"
"Leslie-Lohman Gay Art Foundation","POINT (-74.00027430190332 40.725657281716074)","131 Prince St","","New York",10012,"-74.00027430190332","40.725657281716074"
"Levin Betty","POINT (-73.97198517368206 40.762403359601485)","41 E 57th St","","New York",10022,"-73.97198517368206","40.762403359601485"
"Levine Elizabeth & Assocs","POINT (-73.97752233831233 40.78986636444299)","565 W End Ave","","New York",10024,"-73.97752233831233","40.78986636444299"
"Lewitt Fine Art Gallery","POINT (-73.96271300500342 40.77635842960548)","16 E 79th St","","New York",10021,"-73.96271300500342","40.77635842960548"
"Lexington Art & Frame Co","POINT (-73.96626234371489 40.765174089329214)","832 Lexington Ave","","New York",10021,"-73.96626234371489","40.765174089329214"
"Limner Gallery","POINT (-73.98905873668865 40.74758821864417)","870 Avenue of the Americas","","New York",10001,"-73.98905873668865","40.74758821864417"
"Decor Art Gallery","POINT (-73.97664409804126 40.747225030421035)","551 3rd Ave","","New York",10016,"-73.97664409804126","40.747225030421035"
"Decor Art Gallery Inc","POINT (-73.98154385842008 40.7404255519148)","353 3rd Ave","","New York",10010,"-73.98154385842008","40.7404255519148"
"Decor Art Gallery Inc","POINT (-73.99753554633254 40.741996280274655)","158 7th Ave","","New York",10011,"-73.99753554633254","40.741996280274655"
"Decor Art Gallery VII+","POINT (-73.98527373184241 40.736362036938104)","222 3rd Ave","","New York",10003,"-73.98527373184241","40.736362036938104"
"Deitch Projects","POINT (-74.00256827194076 40.722033638383714)","76 Grand St","and 18 Wooster St","New York",10013,"-74.00256827194076","40.722033638383714"
"Demirjian Torkom","POINT (-73.96384991439417 40.774240737523726)","970 Madison Ave","","New York",10021,"-73.96384991439417","40.774240737523726"
"Demu Gallery","POINT (-73.97407489974366 40.68639582033313)","761 Fulton St","","Brooklyn",11217,"-73.97407489974366","40.68639582033313"
"Denise Bibro Fine Art","POINT (-74.00695182116277 40.74677236451142)","529 W 20th Street","4th Floor","New York",10011,"-74.00695182116277","40.74677236451142"
"Dennis De Lorenzo Gallery","POINT (-73.97027929107071 40.76581473623051)","21 E 62nd St","","New York",10021,"-73.97027929107071","40.76581473623051"
"Derek Eller Gallery","POINT (-73.98825306635624 40.744507143708255)","15 W 27th St","","New York",10001,"-73.98825306635624","40.744507143708255"
"Dickinson Roundell Inc","POINT (-73.96854540922763 40.768254397122384)","19 E 66th St","","New York",10021,"-73.96854540922763","40.768254397122384"
"Dollhaus","POINT (-73.96730076177079 40.710841276579444)","37 Broadway","","Brooklyn",11211,"-73.96730076177079","40.710841276579444"
"Donson Theodore B Ltd","POINT (-73.9757360256425 40.76332075744324)","24 W 57th St","","New York",10019,"-73.9757360256425","40.76332075744324"
"Dorfman Projects","POINT (-74.00682774650868 40.74671947348653)","529 W 20th St","Ste 7E","New York",10011,"-74.00682774650868","40.74671947348653"
"Dorsky Carol","POINT (-73.96492290063352 40.773036926571606)","20 E 74th St","","New York",10021,"-73.96492290063352","40.773036926571606"
"Doug Meyer Fine Art","POINT (-73.9369317584929 40.612782716099275)","1775 E 34th St","","Brooklyn",11234,"-73.9369317584929","40.612782716099275"
"Downtown Arts Festival","POINT (-74.00737810561168 40.709813332338854)","114 Fulton St","","New York",10038,"-74.00737810561168","40.709813332338854"
"Downtown Music Gallery","POINT (-73.9959259244248 40.71165385266468)","13 Monroe Street","","New York",10002,"-73.9959259244248","40.71165385266468"
"Dranoff Fine Art","POINT (-73.99738556245964 40.7249965758697)","591 Broadway","","New York",10012,"-73.99738556245964","40.7249965758697"
"Dresden Art Galries","POINT (-73.99099244323159 40.74975505881183)","401 7 Avenue","","New York",10001,"-73.99099244323159","40.74975505881183"
"DUMBO Arts Center","POINT (-73.98981274885115 40.703473199556065)","30 Washington St","","Brooklyn",11201,"-73.98981274885115","40.703473199556065"
"Duncan Ligoa","POINT (-73.96590830710969 40.771698552474625)","22 E 72nd St","","New York",10021,"-73.96590830710969","40.771698552474625"
"E Art Group","POINT (-73.99390782077703 40.7488345265814)","224 W 30th St","","New York",10001,"-73.99390782077703","40.7488345265814"
"Eastern Arts Inc","POINT (-74.00670810578254 40.737994892829946)","68 Jane St","","New York",10014,"-74.00670810578254","40.737994892829946"
"Edward Thorp Gallery","POINT (-74.00608114867032 40.749810564067324)","210 11th Ave","","New York",10001,"-74.00608114867032","40.749810564067324"
"Edwynn Houk Gallery","POINT (-73.97334238756805 40.763410831787006)","745 5th Ave","","New York",10151,"-73.97334238756805","40.763410831787006"
"Eileen Walters Gallery","POINT (-73.98109484651968 40.78498334596437)","411 West End Ave","West End Ave & 82nd St W","New York",10024,"-73.98109484651968","40.78498334596437"
"Elga Wimmer","POINT (-74.00432687269794 40.750102307304815)","526 W 26th St","","New York",10001,"-74.00432687269794","40.750102307304815"
"Elizabeth Dee Gallery","POINT (-74.00753313138655 40.74688520103006)","545 West 20th Street","","New York",10011,"-74.00753313138655","40.74688520103006"
"Elizabeth Harris Gallery","POINT (-74.00677133731472 40.746579368826644)","529 W 20th St","","New York",10011,"-74.00677133731472","40.746579368826644"
"Elizabeth Mayer Fine Art","POINT (-73.96383795015514 40.77222814835738)","55 E 73rd St","","New York",10021,"-73.96383795015514","40.77222814835738"
"Elizabeth Moore Fine Art","POINT (-73.96285621447495 40.769109520940894)","963 Lexington Ave","","New York",10021,"-73.96285621447495","40.769109520940894"
"Elizabeth Wang Gallery","POINT (-73.97162702667644 40.76559751156042)","800 5th Ave","","New York",10021,"-73.97162702667644","40.76559751156042"
"Elkon Gallery Inc","POINT (-73.96186682368997 40.77772379888382)","18 E 81st St","","New York",10028,"-73.96186682368997","40.77772379888382"
"Elliot Stevens Ltd","POINT (-73.97334596698829 40.756502600838544)","301 Park Ave","","New York",10022,"-73.97334596698829","40.756502600838544"
"Emily Harvey Gallery","POINT (-73.99900174787658 40.7235058370544)","537 Broadway","","New York",10012,"-73.99900174787658","40.7235058370544"
"Environment Home Furnshngs Inc","POINT (-73.96555408435164 40.76208202722147)","205 E 60th St","","New York",10022,"-73.96555408435164","40.76208202722147"
"Equatorial America Inc","POINT (-73.96424711841593 40.755759496755)","411 E 53rd St","","New York",10022,"-73.96424711841593","40.755759496755"
"Equitable Appraisal Co Inc","POINT (-73.96428935997606 40.77397695337737)","19 E 75th St","","New York",10021,"-73.96428935997606","40.77397695337737"
"Equity Art Brokers","POINT (-73.9661194048795 40.7552841788991)","340 E 52nd St","","New York",10022,"-73.9661194048795","40.7552841788991"
"Equity Art Brokers","POINT (-73.99114640729313 40.7436771577712)","40 W 25th St","","New York",10010,"-73.99114640729313","40.7436771577712"
"Erotics Gallery","POINT (-73.99057186267646 40.73707045732857)","41 Union Sq W","Ste 1011","New York",10003,"-73.99057186267646","40.73707045732857"
"Esso Gallery","POINT (-74.00381836652981 40.750249694883195)","531 W 26th St","","New York",10001,"-74.00381836652981","40.750249694883195"
"Exhibit A","POINT (-73.99769214859654 40.72505669230653)","160 Mercer St","","New York",10012,"-73.99769214859654","40.72505669230653"
"Exit Art","POINT (-73.99850449056575 40.75624293255336)","475 10th Ave","","New York",10018,"-73.99850449056575","40.75624293255336"
"Exotiqa II","POINT (-73.78597884804125 40.84660712240781)","280 City Island Ave","","Bronx",10464,"-73.78597884804125","40.84660712240781"
"Eye Jammie Fine Arts Gallery","POINT (-74.00430835963606 40.749266990520084)","516 W 25th St","","New York",10001,"-74.00430835963606","40.749266990520084"
"Eyebeam Atelier","POINT (-74.00705639760449 40.74698648235827)","540 W 21st St","","New York",10011,"-74.00705639760449","40.74698648235827"
"Ezair Gallery","POINT (-73.96488957373968 40.77214609107672)","905 Madison Ave","","New York",10021,"-73.96488957373968","40.77214609107672"
"Faith Art Gallery Corp","POINT (-73.98502183713724 40.69145797289582)","393 Bridge St","","Brooklyn",11201,"-73.98502183713724","40.69145797289582"
"Feature Inc","POINT (-74.00465742633867 40.74938527551454)","530 W 25th St","","New York",10001,"-74.00465742633867","40.74938527551454"
"Fields Walter","POINT (-73.97999416175843 40.72434452521103)","208 E 7th St Ofc","","New York",10009,"-73.97999416175843","40.72434452521103"
"Fifty-Five Mercer Gallery","POINT (-74.00122058669174 40.72199019386643)","55 Mercer St","","New York",10013,"-74.00122058669174","40.72199019386643"
"Findlay David Galleries","POINT (-73.95786468302175 40.77671112812341)","1202 Lexington Ave","Suite 282","New York",10028,"-73.95786468302175","40.77671112812341"
"Findlay David Jr Fine Art","POINT (-73.97174887002554 40.76231666076687)","41 E 57th St","","New York",10022,"-73.97174887002554","40.76231666076687"
"Findlay Peter Gallery","POINT (-73.97180039192365 40.762237733372395)","41 E 57th St","","New York",10022,"-73.97180039192365","40.762237733372395"
"Fine Art Acquisitions","POINT (-74.00029974157532 40.7235933155635)","122 Spring St","","New York",10012,"-74.00029974157532","40.7235933155635"
"Fine Art Alacarte","POINT (-74.00380156301806 40.70636686174815)","89 South Street","S Street Seaport","New York",10001,"-74.00380156301806","40.70636686174815"
"Fine Art Services & Transport","POINT (-73.92883940898508 40.738232388711204)","48-75 37th St","","Long Island City",11101,"-73.92883940898508","40.738232388711204"
"First Street Gallery","POINT (-74.00443446589546 40.74996792701139)","526 W 26th St","Rm 915","New York",10001,"-74.00443446589546","40.74996792701139"
"Fischbach Gallery","POINT (-74.00602112606222 40.74989670512089)","210 Eleventh Ave.","Ste. 801","New York",10001,"-74.00602112606222","40.74989670512089"
"Flushing Art Gallery","POINT (-73.83041137904691 40.76141732272762)","3711 Main St","","Flushing",11354,"-73.83041137904691","40.76141732272762"
"Focal Point Gallery","POINT (-73.78685976077512 40.84756077816203)","321 City Island Ave","","Bronx",10464,"-73.78685976077512","40.84756077816203"
"Folin Riva Inc","POINT (-74.00707399355053 40.74660508530802)","535 W 20th St","","New York",10011,"-74.00707399355053","40.74660508530802"
"Folklorica","POINT (-73.97503918883272 40.7598343459659)","12 E 53rd St","","New York",10022,"-73.97503918883272","40.7598343459659"
"Forbes Magazine Galleries","POINT (-73.99479482822287 40.735021911118785)","60 Fifth Avenue","","New York",10011,"-73.99479482822287","40.735021911118785"
"Forrest Scott Group","POINT (-73.99647308638792 40.72397525886468)","270 Lafayette St","","New York",10012,"-73.99647308638792","40.72397525886468"
"Fortress Fae Worldwide","POINT (-73.95653685419958 40.74335663129033)","4920 5th St","","Long Island City",11101,"-73.95653685419958","40.74335663129033"
"Fortress Ny","POINT (-73.95672412634464 40.7433898305589)","4920 5th St","","Long Island City",11101,"-73.95672412634464","40.7433898305589"
"Fortuna Fine Arts Ltd","POINT (-73.96344115477852 40.77485986451713)","984 Madison Ave","","New York",10021,"-73.96344115477852","40.77485986451713"
"Forum Gallery","POINT (-73.97342331202799 40.763293452643666)","745 5th Ave","","New York",10151,"-73.97342331202799","40.763293452643666"
"Fowa Enterprises Corp","POINT (-73.9970125926335 40.71331565137543)","17 E Broadway","","New York",10002,"-73.9970125926335","40.71331565137543"
"Franklin Bowles Galleries","POINT (-74.00094986667257 40.72526683360754)","431 W Broadway","","New York",10012,"-74.00094986667257","40.72526683360754"
"Franklin Parrasch Gallery","POINT (-73.9754342245949 40.76337208346219)","20 W 57th St","","New York",10019,"-73.9754342245949","40.76337208346219"
"Frederick Schultz Ancient Art","POINT (-73.98069884494643 40.78690228343233)","325 W 82nd St","","New York",10024,"-73.98069884494643","40.78690228343233"
"Fredericks Freiser Gallery","POINT (-74.0051961895703 40.74706888848231)","504 W. 22nd St.","","New York",10011,"-74.0051961895703","40.74706888848231"
"Frederieke Taylor Gallery","POINT (-74.00623829502504 40.74784537034997)","535 W 22nd St","","New York",10011,"-74.00623829502504","40.74784537034997"
"Frei-Nathan Susan Fine Works On Paper Llc","POINT (-73.95473116061781 40.774331362688265)","245 E 80th St","","New York",10021,"-73.95473116061781","40.774331362688265"
"Friedman Vallois Llc","POINT (-73.96744385873235 40.76858930269392)","27 E 67th St","","New York",10021,"-73.96744385873235","40.76858930269392"
"Friedrich Petzel Gallery","POINT (-74.0060955850063 40.74785399223359)","535 W. 22nd St.","","New York",10011,"-74.0060955850063","40.74785399223359"
"Frielich Bros-Deutsch Bros","POINT (-73.99481412195294 40.72722478022204)","670 Broadway","","New York",10012,"-73.99481412195294","40.72722478022204"
"Friends of Bezalel Academy","POINT (-73.98073127343689 40.75313966691115)","501 5th Ave","","New York",10017,"-73.98073127343689","40.75313966691115"
"Fulton Plaza","POINT (-74.00704683072064 40.709589772433894)","106 Fulton St","","New York",10038,"-74.00704683072064","40.709589772433894"
"Fulton St Art Gallery","POINT (-74.0058906552173 40.70746874115894)","116 John St","","New York",10038,"-74.0058906552173","40.70746874115894"
"G P L Promotions Ltd","POINT (-73.9820716102324 40.74955563966176)","220 Madison Ave","","New York",10016,"-73.9820716102324","40.74955563966176"
"Gagosian Gallery Chelsea","POINT (-74.00539200905294 40.74908343886072)","555 W 24th St","","New York",10011,"-74.00539200905294","40.74908343886072"
"Gagosian Gallery Uptown","POINT (-73.96358044738228 40.77483505925351)","980 Madison Ave","","New York",10021,"-73.96358044738228","40.77483505925351"
"Galerie Des Arts Ltd","POINT (-73.96420493195589 40.774418719275054)","18 E 76th St","","New York",10021,"-73.96420493195589","40.774418719275054"
"Galerie Thomas","POINT (-74.00283704393195 40.73581223354875)","41 Perry St","","New York",10014,"-74.00283704393195","40.73581223354875"
"Galleria On Third","POINT (-73.9771880235982 40.7464019802216)","529 3rd Ave","","New York",10016,"-73.9771880235982","40.7464019802216"
"Galleria Ramis Barquet Ny Ltd","POINT (-73.9717918765114 40.76241422294618)","41 E 57th St","","New York",10022,"-73.9717918765114","40.76241422294618"
"Gallery 151","POINT (-73.99204713700522 40.72674329135941)","350 Bowery","","New York",10012,"-73.99204713700522","40.72674329135941"
"Gallery 292","POINT (-74.00008646178615 40.72505115926186)","120 Wooster St","","New York",10012,"-74.00008646178615","40.72505115926186"
"Gallery 49","POINT (-73.98751492176174 40.76183838880812)","310 W 49th St","","New York",10019,"-73.98751492176174","40.76183838880812"
"Gallery 71 Inc","POINT (-73.96299598715007 40.76963622268238)","974 Lexington Ave","","New York",10021,"-73.96299598715007","40.76963622268238"
"Gallery 91","POINT (-74.00215738341032 40.72140576655862)","91 Grand St","","New York",10013,"-74.00215738341032","40.72140576655862"
"Gallery at the American Bible Society","POINT (-73.98273876090653 40.770253984977735)","1865 Broadway","","New York",10023,"-73.98273876090653","40.770253984977735"
"Gallery at the New York School of Interior Design","POINT (-73.96246362850043 40.76856417031806)","170 E. 70th St.","","New York",10021,"-73.96246362850043","40.76856417031806"
"Gallery Bai Inc","POINT (-73.99627932016458 40.76059646482155)","520 W 43rd St","","New York",10036,"-73.99627932016458","40.76059646482155"
"Gallery Henoch","POINT (-74.0052608577384 40.75012695130152)","555 W 25th St","","New York",10001,"-74.0052608577384","40.75012695130152"
"Gallery of Ireland","POINT (-73.91369900852506 40.74795986909378)","3931 50th Street","","Woodside",11377,"-73.91369900852506","40.74795986909378"
"Gardner & Barr Inc","POINT (-73.96278275783858 40.76174806416189)","305 E 61th St","","New York",10065,"-73.96278275783858","40.76174806416189"
"Garth Clark Gallery","POINT (-73.97564540681256 40.763285421445794)","24 W 57th St","Ste 305","New York",10019,"-73.97564540681256","40.763285421445794"
"Garth Clark Gallery's Project Space","POINT (-73.94831899229405 40.74618053918587)","4546 21st St","","Long Island City",11101,"-73.94831899229405","40.74618053918587"
"Gasser & Grunert","POINT (-74.00736219552937 40.74558377584045)","524 W 19th St","","New York",10011,"-74.00736219552937","40.74558377584045"
"Gavin Brown's Enterprise Corp","POINT (-74.0085930244375 40.730549913427986)","620 Greenwich St","","New York",10014,"-74.0085930244375","40.730549913427986"
"Generous Miracles Space Ltd","POINT (-74.00701008815427 40.746693728761855)","529 W 20th St","","New York",10011,"-74.00701008815427","40.746693728761855"
"George Adams Gallery","POINT (-74.0040267783162 40.750253994005206)","525 West 26th Street","First Floor","New York",10001,"-74.0040267783162","40.750253994005206"
"George Billis Gallery","POINT (-74.00542747653267 40.75007756252589)","555 W 25th St","","New York",10001,"-74.00542747653267","40.75007756252589"
"Geos Art Gallery and Tuxedos","POINT (-73.75061139959807 40.69203361424628)","20019 119th Ave","","Saint Albans",11412,"-73.75061139959807","40.69203361424628"
"Gerold Wunderlich & Co","POINT (-73.97659530718671 40.76374157424417)","50 W 57th St","","New York",10019,"-73.97659530718671","40.76374157424417"
"Gian Enzo Sperone","POINT (-74.00803261461144 40.72978028838602)","603 Greenwich St","","New York",10014,"-74.00803261461144","40.72978028838602"
"Giraud Pissarro Segalot","POINT (-73.96355104844147 40.76906697162935)","132 E 70th St","","New York",10021,"-73.96355104844147","40.76906697162935"
"Gleason Tim Gallery","POINT (-73.99427301826346 40.72170159769526)","194 Elizabeth St","","New York",10012,"-73.99427301826346","40.72170159769526"
"Global Passages Inc","POINT (-73.9655111637798 40.76214537207265)","205 E 60th St","","New York",10022,"-73.9655111637798","40.76214537207265"
"Godel & Co Inc","POINT (-73.96478601469289 40.77181138928517)","39 E 72nd St","","New York",10021,"-73.96478601469289","40.77181138928517"
"Goedhuis Contemporary Ltd","POINT (-73.96297172599212 40.77396710832053)","42 E 76th St","","New York",10021,"-73.96297172599212","40.77396710832053"
"Goethe-Institut Wyoming Building","POINT (-73.991118752324 40.726343191313894)","5 East 3rd Street","","New York",10003,"-73.991118752324","40.726343191313894"
"Golden Caren Fine Arts","POINT (-74.00450469978173 40.750089379127566)","526 W 26th St","","New York",10001,"-74.00450469978173","40.750089379127566"
"Goodman James Gallery","POINT (-73.9718797176169 40.76227754335042)","41 E 57th St","","New York",10022,"-73.9718797176169","40.76227754335042"
"Grant Gallery","POINT (-74.00244284009406 40.72044661006158)","7 Mercer St","","New York",10013,"-74.00244284009406","40.72044661006158"
"Great Modern Pictures","POINT (-73.98565422143587 40.74843274670205)","EMPIRE STATE BUILDING","350 Fifth Avenue","New York",10001,"-73.98565422143587","40.74843274670205"
"Greeley Square Gallery","POINT (-73.98769078170102 40.74704275195677)","32 W 31st St","","New York",10001,"-73.98769078170102","40.74704275195677"
"Green Essie Galleries Inc","POINT (-73.94466950657635 40.8263814767388)","419 Convent Ave","","New York",10031,"-73.94466950657635","40.8263814767388"
"Greene Naftali Inc","POINT (-74.0043835006039 40.7500359783972)","526 W 26th St","","New York",10001,"-74.0043835006039","40.7500359783972"
"Greene Space Gallery","POINT (-74.00004007257938 40.72450898614801)","105 Greene St","","New York",10012,"-74.00004007257938","40.72450898614801"
"Littlejohn Contemporary Art","POINT (-73.9720341556309 40.762339834613556)","41 E 57th St","","New York",10022,"-73.9720341556309","40.762339834613556"
"Lizan Tops Associates","POINT (-73.95713276781972 40.78491989709677)","8 E 92nd St","","New York",10128,"-73.95713276781972","40.78491989709677"
"Lladro Museum & Collector's Society","POINT (-73.97625732139223 40.764129643096624)","43 W 57th St","","New York",10019,"-73.97625732139223","40.764129643096624"
"Lladro USA","POINT (-73.97619602094638 40.76421069112866)","43 W 57th St","","New York",10019,"-73.97619602094638","40.76421069112866"
"Location One","POINT (-74.00246502735797 40.72098729448363)","26 Greene St.","","New York",10013,"-74.00246502735797","40.72098729448363"
"Lombard-Fried Fine Arts Inc","POINT (-74.00376626857845 40.75032119136636)","531 W 26th St","","New York",10001,"-74.00376626857845","40.75032119136636"
"Long Fine Art","POINT (-74.00645063379821 40.74172005305661)","427 W 14th St","","New York",10014,"-74.00645063379821","40.74172005305661"
"Lower Manhattan Cultural Council","POINT (-74.00625208146835 40.70660441948521)","125 Maiden Lane","2nd Floor","New York",10038,"-74.00625208146835","40.70660441948521"
"Lublin Mary Fine Arts","POINT (-73.96345944136702 40.768971637821174)","954 Lexington Avenue","Box 254","New York",10021,"-73.96345944136702","40.768971637821174"
"Lucas Schoormans Gallery","POINT (-74.00374213811756 40.74976145835798)","508 W. 26th St.","11B","New York",10001,"-74.00374213811756","40.74976145835798"
"Ludlow 38","POINT (-73.99014613514807 40.71607367303681)","38 Ludlow Street","","New York",10002,"-73.99014613514807","40.71607367303681"
"Luhring Augustine Gallery Inc","POINT (-74.0051017956319 40.749108936403005)","531 W 24th St","","New York",10011,"-74.0051017956319","40.749108936403005"
"Lumbard Jean","POINT (-73.95437532341417 40.78759696509945)","17 E 96th St","","New York",10128,"-73.95437532341417","40.78759696509945"
"Lun Yee Assn","POINT (-73.9969683352414 40.71679772279514)","167 Canal St","","New York",10013,"-73.9969683352414","40.71679772279514"
"Lunarbase Inc","POINT (-73.96034431950848 40.71427464948914)","197 Grand St","","Brooklyn",11211,"-73.96034431950848","40.71427464948914"
"Lurie Tamar & Ranan","POINT (-73.97398762402888 40.762467000419925)","721 5th Ave","","New York",10022,"-73.97398762402888","40.762467000419925"
"M & R Sayer Fine Art Llc","POINT (-73.9630531621982 40.77012252728817)","129 E 71st St","","New York",10021,"-73.9630531621982","40.77012252728817"
"M K J Art Gallery","POINT (-73.98242012609117 40.73819665775827)","214 E 23rd St","","New York",10010,"-73.98242012609117","40.73819665775827"
"MacCarone Inc","POINT (-74.00848029743038 40.73093143658071)","630 Greenwich Street","","New York",10014,"-74.00848029743038","40.73093143658071"
"Malcolm Christian T Fine Arts Managemnt Svc","POINT (-73.99402296311386 40.74846916935583)","227 W 29th St","","New York",10001,"-73.99402296311386","40.74846916935583"
"Manhattan Art","POINT (-73.98448379592651 40.750312509446104)","13 W 36th St","","New York",10018,"-73.98448379592651","40.750312509446104"
"Mansion Gracie Gallery","POINT (-73.9888692388919 40.72740795745368)","101 Second Avenue","#1","New York",10003,"-73.9888692388919","40.72740795745368"
"Marbella Gallery","POINT (-73.96530499987901 40.77144369478027)","28 E 72nd St","","New York",10021,"-73.96530499987901","40.77144369478027"
"Marc Jancou Contemporary","POINT (-73.99458297914451 40.72749292219705)","680 Broadway","","New York",10012,"-73.99458297914451","40.72749292219705"
"Marc Jancou Fine Art Ltd","POINT (-73.96727019418874 40.7687705626813)","801 Madison Ave","","New York",10021,"-73.96727019418874","40.7687705626813"
"Marcus Curt Gallery Inc","POINT (-73.99703425892838 40.731995513546245)","2 5th Ave","","New York",10011,"-73.99703425892838","40.731995513546245"
"Margaret Thatcher Projects","POINT (-74.00548674159079 40.748502675474484)","539 West 23rd Street","Ground Floor","New York",10011,"-74.00548674159079","40.748502675474484"
"Margo Feiden Galleries Ltd","POINT (-73.9948212913365 40.73257492132912)","15 E 9th St","","New York",10003,"-73.9948212913365","40.73257492132912"
"Marian Goodman Gallery","POINT (-73.9756850214431 40.76338707243015)","24 W 57th St","Fl 4","New York",10019,"-73.9756850214431","40.76338707243015"
"Marianne Boesky Gallery","POINT (-74.0042404164484 40.74883916800079)","509 West 24th Street","","New York",10011,"-74.0042404164484","40.74883916800079"
"Marie Walsh Sharpe Art Foundation Art","POINT (-74.00938294824508 40.7232195707651)","443 Greenwich St","","New York",10013,"-74.00938294824508","40.7232195707651"
"Markey Lawrence Inc","POINT (-73.96303059746732 40.77388979473836)","42 E 76th St","","New York",10021,"-73.96303059746732","40.77388979473836"
"Marlborough Gallery","POINT (-73.97630724645423 40.76355779629612)","40 W 57th St","","New York",10019,"-73.97630724645423","40.76355779629612"
"Martin Lawrence Galleries","POINT (-74.00024343226816 40.72612900171989)","457 W Broadway","","New York",10012,"-74.00024343226816","40.72612900171989"
"Martinez Gallery","POINT (-74.00309629649774 40.7507808655543)","515 W 27th St","","New York",10001,"-74.00309629649774","40.7507808655543"
"Mary Boone Gallery","POINT (-73.9732063898559 40.763356760077734)","745 5th Ave","","New York",10151,"-73.9732063898559","40.763356760077734"
"Mary Ryan Gallery","POINT (-73.97559553880573 40.76334398509295)","24 W. 57th St.","","New York",10019,"-73.97559553880573","40.76334398509295"
"Master Drawing Assoc","POINT (-73.92992226435246 40.68805923739471)","669 Monroe St","","Brooklyn",11221,"-73.92992226435246","40.68805923739471"
"Master Framemakers","POINT (-73.96508958816975 40.76193299889474)","219 East 60th Street","","New York",10022,"-73.96508958816975","40.76193299889474"
"Mathes Barbara Gallery","POINT (-73.9621648427065 40.776966586294506)","22 E 80th St","","New York",10075,"-73.9621648427065","40.776966586294506"
"Matthew Marks Gallery - 22nd St.","POINT (-74.00589658293134 40.74729741496908)","522 W 22nd St.","","New York",10011,"-74.00589658293134","40.74729741496908"
"Matthew Marks Gallery - 24th St.","POINT (-74.00474727902512 40.74897107597267)","523 W. 24th St.","","New York",10011,"-74.00474727902512","40.74897107597267"
"Max Protetech Gallery","POINT (-74.00529719142446 40.74749802827233)","511 W 22nd St","","New York",10011,"-74.00529719142446","40.74749802827233"
"Maxwell Davidson Gallery","POINT (-73.97461593969648 40.76264197439602)","724 5th Ave","","New York",10019,"-73.97461593969648","40.76264197439602"
"Mc Dougal A","POINT (-73.98091303786859 40.78655118582654)","98 Riverside Dr","","New York",10024,"-73.98091303786859","40.78655118582654"
"McCarron Paul Fine Prints & Drawings","POINT (-73.96278657366754 40.77592684790551)","1014 Madison Ave","","New York",10021,"-73.96278657366754","40.77592684790551"
"McGinnis Cheryl Gallery","POINT (-73.99214582774601 40.75467997009493)","555 Eighth Avenue","#710","New York",10024,"-73.99214582774601","40.75467997009493"
"McKee Gallery","POINT (-73.97329466643644 40.76323751959007)","745 Fifth Ave.","4th Fl.","New York",10151,"-73.97329466643644","40.76323751959007"
"McKenzie Fine Art Inc","POINT (-74.0037714072592 40.7494363855362)","511 W 25th St","","New York",10001,"-74.0037714072592","40.7494363855362"
"Medialia Corp","POINT (-73.99314536312515 40.755599322852156)","335 W 38th St","","New York",10018,"-73.99314536312515","40.755599322852156"
"Mehu Gallery","POINT (-73.96368099052644 40.79479917677156)","21 W 100th St","","New York",10025,"-73.96368099052644","40.79479917677156"
"Meisel Louis K Gallery","POINT (-74.0004792798924 40.72569433519086)","141 Prince St","","New York",10012,"-74.0004792798924","40.72569433519086"
"Meisel Susan P Decorative Arts","POINT (-74.00042049442699 40.725768874154355)","141 Prince St","","New York",10012,"-74.00042049442699","40.725768874154355"
"Merrin Gallery","POINT (-73.97468953401778 40.76275397100442)","724 5th Ave","","New York",10019,"-73.97468953401778","40.76275397100442"
"Merton Simpson Gallery Inc","POINT (-73.98965865906193 40.74544740199807)","38 W 28th St","Fl 5","New York",10001,"-73.98965865906193","40.74544740199807"
"Messineo Atr Projects","POINT (-73.99393229114348 40.748599606534086)","227 West 29th Street","4th Floor (#111)","New York",10001,"-73.99393229114348","40.748599606534086"
"Metro Art","POINT (-73.87450325388727 40.71335895928153)","7823 Metropolitan Ave","","Middle Village",11379,"-73.87450325388727","40.71335895928153"
"Metro Art and Frame","POINT (-73.91115650639766 40.886049537256284)","585 W 235th St","","Bronx",10463,"-73.91115650639766","40.886049537256284"
"Metro Pictures","POINT (-74.00459372674845 40.74895493162205)","519 W 24th St","","New York",10011,"-74.00459372674845","40.74895493162205"
"Miakey Art Gallery","POINT (-74.00855557930753 40.64025482225344)","5402 7th Ave","","Brooklyn",11220,"-74.00855557930753","40.64025482225344"
"Michael Werner Gallery","POINT (-73.9642620856143 40.77524709148462)","4 E. 77th St.","","New York",10021,"-73.9642620856143","40.77524709148462"
"Michail- Lombardo Gallery","POINT (-73.96654242387 40.76984145571714)","829 Madison Ave","","New York",10021,"-73.96654242387","40.76984145571714"
"Michel Soskine Inc","POINT (-73.96069063723024 40.77611497745193)","900 Park Ave","","New York",10021,"-73.96069063723024","40.77611497745193"
"Michelle Rosenfeld Gallery","POINT (-73.96278905057954 40.776259691570026)","16 E 79th St","","New York",10021,"-73.96278905057954","40.776259691570026"
"Miele Frank J Gallery","POINT (-73.96106461848258 40.77816985290121)","1086 Madison Ave","","New York",10028,"-73.96106461848258","40.77816985290121"
"Miller Geisler Gallery Llc","POINT (-74.00402625964297 40.74952854550345)","511 W 25th St","","New York",10001,"-74.00402625964297","40.74952854550345"
"Miller Laurence Gallery Inc","POINT (-73.97553261570835 40.76323164644723)","20 W 57th St","Lbby","New York",10019,"-73.97553261570835","40.76323164644723"
"Mimi Ferzt Inc","POINT (-74.00074603486665 40.72369074954108)","81 Greene St","","New York",10012,"-74.00074603486665","40.72369074954108"
"Minetta Brook Inc","POINT (-74.00901737699937 40.71949070424967)","105 Hudson St","","New York",10001,"-74.00901737699937","40.71949070424967"
"Mip Art Realty Inc","POINT (-74.00028349944168 40.72296987769243)","83 Mercer St","Fl 5","New York",10012,"-74.00028349944168","40.72296987769243"
"Mitchell Algus Gallery","POINT (-74.0037861385374 40.7495397514391)","511 W 25th St","","New York",10001,"-74.0037861385374","40.7495397514391"
"Mitchell-Innes & Nash","POINT (-73.9625796104965 40.77599315332581)","1018 Madison Ave","","New York",10021,"-73.9625796104965","40.77599315332581"
"Mixed Greens Gallery","POINT (-74.00387840196353 40.75030912806995)","531 W 26th St","","New York",10001,"-74.00387840196353","40.75030912806995"
"Mobile Concept Inc","POINT (-73.83095586656464 40.76192417138188)","3655 Main St","","Flushing",11354,"-73.83095586656464","40.76192417138188"
"Modern Art & Framing","POINT (-73.98032204078434 40.76455537136017)","877 7th Ave","","New York",10019,"-73.98032204078434","40.76455537136017"
"Moeller Achim Fine Art Ltd","POINT (-73.96863603499325 40.76627436625894)","36 E 64th St","","New York",10065,"-73.96863603499325","40.76627436625894"
"Momenta Art Gallery","POINT (-73.96295355070409 40.71150041862991)","359 Bedford Ave","","Brooklyn",11211,"-73.96295355070409","40.71150041862991"
"Monalisa Art Gallery","POINT (-73.9466513812263 40.780108749470884)","1758 1st Ave","","New York",10128,"-73.9466513812263","40.780108749470884"
"Montserrat Gallery Inc","POINT (-73.99692951565866 40.72471669537883)","584 Broadway","","New York",10012,"-73.99692951565866","40.72471669537883"
"Mooney Robert J Arts Management","POINT (-73.99361475424345 40.68908922127575)","174 Pacific St","","Brooklyn",11201,"-73.99361475424345","40.68908922127575"
"Morales David","POINT (-73.99280897511609 40.755395881808944)","325 W 38th St","Lbby","New York",10018,"-73.99280897511609","40.755395881808944"
"Morgan Art Consulting","POINT (-73.98578003114238 40.74025449638514)","303 Park Avenue South","#1204","New York",10010,"-73.98578003114238","40.74025449638514"
"Morning Star Gallery Ltd","POINT (-73.85783325965976 40.729925290435816)","9809 64th Rd","","Rego Park",11374,"-73.85783325965976","40.729925290435816"
"Naegele Amyas Bases & African Art","POINT (-73.99433591239288 40.75448640349798)","347 W 36th St","","New York",10018,"-73.99433591239288","40.75448640349798"
"Naiman Lee Fine Art","POINT (-73.96767394746206 40.78834441532084)","300 Central Park W","","New York",10024,"-73.96767394746206","40.78834441532084"
"Nancy Hoffman Gallery Inc","POINT (-74.00102410365224 40.72518023281353)","429 W Broadway","","New York",10012,"-74.00102410365224","40.72518023281353"
"Nancy Margolis Gallery Inc","POINT (-74.00418364531838 40.74964655751219)","523 W 25th Street","","New York",10001,"-74.00418364531838","40.74964655751219"
"Natalie Karg Ltd","POINT (-73.99266562686707 40.75533810535789)","325 W 38th St","","New York",10018,"-73.99266562686707","40.75533810535789"
"Nathaniel Moore Llc","POINT (-74.0088638253243 40.72031106253412)","121 Hudson St","","New York",10013,"-74.0088638253243","40.72031106253412"
"Navarra Enrico","POINT (-73.97200032411818 40.762503483162966)","41 E 57th St","","New York",10022,"-73.97200032411818","40.762503483162966"
"Neal Meltzer Fine Arts","POINT (-73.97241955373046 40.76294039373367)","600 Madison Ave","","New York",10022,"-73.97241955373046","40.76294039373367"
"Neikrug Marjorie Appraisals","POINT (-73.96625979341016 40.76536881897661)","136 E 64th St","","New York",10021,"-73.96625979341016","40.76536881897661"
"Neuhoff Gallery Inc","POINT (-73.97205775096393 40.7624328993632)","41 E 57th St","","New York",10022,"-73.97205775096393","40.7624328993632"
"New Dorp Village Antiques Ltd","POINT (-74.11581755294395 40.62843292760055)","517 Broadway","","Staten Island",10310,"-74.11581755294395","40.62843292760055"
"New York Art Expo Inc","POINT (-74.00960786131157 40.70500032253853)","3 Hanover Sq","","New York",10004,"-74.00960786131157","40.70500032253853"
"New York Art Gallery","POINT (-73.94975339732595 40.775828416993)","1626 1st Ave","","New York",10028,"-73.94975339732595","40.775828416993"
"New York Gallery Tours","POINT (-74.00394434300469 40.734595236627335)","82 Charles St","","New York",10014,"-74.00394434300469","40.734595236627335"
"Nexus Gallery Inc","POINT (-73.9839451177135 40.730424943714404)","345 E 12th St","","New York",10003,"-73.9839451177135","40.730424943714404"
"Nohra Haime Gallery","POINT (-73.97210420051013 40.76237001579118)","41 East 57th Street","","New York",10022,"-73.97210420051013","40.76237001579118"
"Nolan Eckman Gallery","POINT (-73.99773989620407 40.72397828849557)","560 Broadway","","New York",10012,"-73.99773989620407","40.72397828849557"
"Northstar Research Associates Inc","POINT (-73.97484365850636 40.78956298783739)","215 W 88th St","Apt 8D","New York",10024,"-73.97484365850636","40.78956298783739"
"Nyabinghi Africian Gift Shop","POINT (-74.00815285200781 40.715235074421756)","111 Chambers St","","New York",10007,"-74.00815285200781","40.715235074421756"
"O J Art Gallery","POINT (-73.99829009763708 40.73488846804124)","446 Ave of the Americas","","New York",10011,"-73.99829009763708","40.73488846804124"
"O.K. Harris Gallery","POINT (-74.00207055583819 40.723688621646204)","383 W. Broadway","","New York",10012,"-74.00207055583819","40.723688621646204"
"Object-Image","POINT (-73.97789833482246 40.67984870697147)","91 5th Ave","","Brooklyn",11217,"-73.97789833482246","40.67984870697147"
"Oditi Inc","POINT (-73.95084961193534 40.786364822127446)","1500 Lexington Ave","","New York",10029,"-73.95084961193534","40.786364822127446"
"Odyssia Gallery","POINT (-73.96269813635554 40.7618747512849)","305 E 61st St","","New York",10021,"-73.96269813635554","40.7618747512849"
"Old Print Shop Inc","POINT (-73.98194844064098 40.74367322071215)","150 Lexington Ave","","New York",10016,"-73.98194844064098","40.74367322071215"
"Omniguard Art Guarantee","POINT (-74.0114722358904 40.708938811665874)","115 Broadway","","New York",10006,"-74.0114722358904","40.708938811665874"
"One Twenty Eight","POINT (-73.9869130305955 40.719806519486134)","128 Rivington St","","New York",10002,"-73.9869130305955","40.719806519486134"
"Opera Gallery","POINT (-73.99994843596657 40.72381493757711)","115 Spring St","","New York",10012,"-73.99994843596657","40.72381493757711"
